{"type": "FeatureCollection", "features": [{"type": "Feature", "geometry": {"type": "Point", "coordinates": [-0.8615, 52.2402]}, "properties": {"confidence_label": "pilot", "cluster_id": 0, "cells": 1, "max_drive_count": 4, "total_bursts": 4, "severity_score": 8.7, "severity_band": "minor roughness", "severity_colour": "#FFD54F"}}, {"type": "Feature", "geometry": {"type": "Point", "coordinates": [-0.86244, 52.2414]}, "properties": {"confidence_label": "pilot", "cluster_id": 1, "cells": 5, "max_drive_count": 9, "total_bursts": 32, "severity_score": 67.3, "severity_band": "strong defect", "severity_colour": "#FB8C00"}}, {"type": "Feature", "geometry": {"type": "Point", "coordinates": [-0.8628, 52.2418]}, "properties": {"confidence_label": "pilot", "cluster_id": 2, "cells": 1, "max_drive_count": 5, "total_bursts": 5, "severity_score": 19.4, "severity_band": "minor roughness", "severity_colour": "#FFD54F"}}, {"type": "Feature", "geometry": {"type": "Point", "coordinates": [-0.863, 52.24205]}, "properties": {"confidence_label": "pilot", "cluster_id": 3, "cells": 2, "max_drive_count": 7, "total_bursts": 14, "severity_score": 56.0, "severity_band": "strong defect", "severity_colour": "#FB8C00"}}, {"type": "Feature", "geometry": {"type": "Point", "coordinates": [-0.8632333333333332, 52.24236666666667]}, "properties": {"confidence_label": "pilot", "cluster_id": 4, "cells": 3, "max_drive_count": 10, "total_bursts": 29, "severity_score": 85.3, "severity_band": "severe pothole", "severity_colour": "#E53935"}}, {"type": "Feature", "geometry": {"type": "Point", "coordinates": [-0.8636416666666666, 52.242975]}, "properties": {"confidence_label": "pilot", "cluster_id": 5, "cells": 12, "max_drive_count": 17, "total_bursts": 106, "severity_score": 85.8, "severity_band": "severe pothole", "severity_colour": "#E53935"}}, {"type": "Feature", "geometry": {"type": "Point", "coordinates": [-0.8642, 52.2441]}, "properties": {"confidence_label": "pilot", "cluster_id": 6, "cells": 1, "max_drive_count": 4, "total_bursts": 4, "severity_score": 5.7, "severity_band": "minor roughness", "severity_colour": "#FFD54F"}}, {"type": "Feature", "geometry": {"type": "Point", "coordinates": [-0.8599, 52.2444]}, "properties": {"confidence_label": "pilot", "cluster_id": 7, "cells": 1, "max_drive_count": 4, "total_bursts": 4, "severity_score": 8.4, "severity_band": "minor roughness", "severity_colour": "#FFD54F"}}, {"type": "Feature", "geometry": {"type": "Point", "coordinates": [-0.8594, 52.2446]}, "properties": {"confidence_label": "pilot", "cluster_id": 8, "cells": 1, "max_drive_count": 6, "total_bursts": 7, "severity_score": 52.6, "severity_band": "strong defect", "severity_colour": "#FB8C00"}}, {"type": "Feature", "geometry": {"type": "Point", "coordinates": [-0.8583, 52.245]}, "properties": {"confidence_label": "pilot", "cluster_id": 9, "cells": 1, "max_drive_count": 5, "total_bursts": 5, "severity_score": 25.9, "severity_band": "minor roughness", "severity_colour": "#FFD54F"}}, {"type": "Feature", "geometry": {"type": "Point", "coordinates": [-0.8646, 52.2451]}, "properties": {"confidence_label": "pilot", "cluster_id": 10, "cells": 1, "max_drive_count": 6, "total_bursts": 6, "severity_score": 43.5, "severity_band": "minor roughness", "severity_colour": "#FFD54F"}}, {"type": "Feature", "geometry": {"type": "Point", "coordinates": [-0.8708, 52.2452]}, "properties": {"confidence_label": "pilot", "cluster_id": 11, "cells": 1, "max_drive_count": 4, "total_bursts": 4, "severity_score": 35.7, "severity_band": "minor roughness", "severity_colour": "#FFD54F"}}, {"type": "Feature", "geometry": {"type": "Point", "coordinates": [-0.8575, 52.2453]}, "properties": {"confidence_label": "pilot", "cluster_id": 12, "cells": 1, "max_drive_count": 4, "total_bursts": 4, "severity_score": 17.6, "severity_band": "minor roughness", "severity_colour": "#FFD54F"}}, {"type": "Feature", "geometry": {"type": "Point", "coordinates": [-0.8647, 52.2454]}, "properties": {"confidence_label": "pilot", "cluster_id": 13, "cells": 1, "max_drive_count": 6, "total_bursts": 6, "severity_score": 32.7, "severity_band": "minor roughness", "severity_colour": "#FFD54F"}}, {"type": "Feature", "geometry": {"type": "Point", "coordinates": [-0.8648, 52.2457]}, "properties": {"confidence_label": "pilot", "cluster_id": 14, "cells": 1, "max_drive_count": 5, "total_bursts": 5, "severity_score": 19.1, "severity_band": "minor roughness", "severity_colour": "#FFD54F"}}, {"type": "Feature", "geometry": {"type": "Point", "coordinates": [-0.85685, 52.2457]}, "properties": {"confidence_label": "pilot", "cluster_id": 15, "cells": 2, "max_drive_count": 5, "total_bursts": 9, "severity_score": 21.4, "severity_band": "minor roughness", "severity_colour": "#FFD54F"}}, {"type": "Feature", "geometry": {"type": "Point", "coordinates": [-0.8565, 52.246]}, "properties": {"confidence_label": "pilot", "cluster_id": 16, "cells": 1, "max_drive_count": 5, "total_bursts": 5, "severity_score": 21.7, "severity_band": "minor roughness", "severity_colour": "#FFD54F"}}, {"type": "Feature", "geometry": {"type": "Point", "coordinates": [-0.8651, 52.2462]}, "properties": {"confidence_label": "pilot", "cluster_id": 17, "cells": 1, "max_drive_count": 6, "total_bursts": 6, "severity_score": 42.1, "severity_band": "minor roughness", "severity_colour": "#FFD54F"}}, {"type": "Feature", "geometry": {"type": "Point", "coordinates": [-0.8562, 52.2463]}, "properties": {"confidence_label": "pilot", "cluster_id": 18, "cells": 1, "max_drive_count": 4, "total_bursts": 4, "severity_score": 11.5, "severity_band": "minor roughness", "severity_colour": "#FFD54F"}}, {"type": "Feature", "geometry": {"type": "Point", "coordinates": [-0.86555, 52.246849999999995]}, "properties": {"confidence_label": "pilot", "cluster_id": 19, "cells": 2, "max_drive_count": 5, "total_bursts": 10, "severity_score": 31.5, "severity_band": "minor roughness", "severity_colour": "#FFD54F"}}, {"type": "Feature", "geometry": {"type": "Point", "coordinates": [-0.8658, 52.2471]}, "properties": {"confidence_label": "pilot", "cluster_id": 20, "cells": 1, "max_drive_count": 6, "total_bursts": 6, "severity_score": 34.3, "severity_band": "minor roughness", "severity_colour": "#FFD54F"}}, {"type": "Feature", "geometry": {"type": "Point", "coordinates": [-0.856, 52.2472]}, "properties": {"confidence_label": "pilot", "cluster_id": 21, "cells": 1, "max_drive_count": 5, "total_bursts": 5, "severity_score": 37.3, "severity_band": "minor roughness", "severity_colour": "#FFD54F"}}, {"type": "Feature", "geometry": {"type": "Point", "coordinates": [-0.8676, 52.2482]}, "properties": {"confidence_label": "pilot", "cluster_id": 22, "cells": 1, "max_drive_count": 5, "total_bursts": 5, "severity_score": 19.3, "severity_band": "minor roughness", "severity_colour": "#FFD54F"}}, {"type": "Feature", "geometry": {"type": "Point", "coordinates": [-0.8563, 52.2484]}, "properties": {"confidence_label": "pilot", "cluster_id": 23, "cells": 1, "max_drive_count": 6, "total_bursts": 6, "severity_score": 34.0, "severity_band": "minor roughness", "severity_colour": "#FFD54F"}}, {"type": "Feature", "geometry": {"type": "Point", "coordinates": [-0.8681, 52.2487]}, "properties": {"confidence_label": "pilot", "cluster_id": 24, "cells": 1, "max_drive_count": 5, "total_bursts": 5, "severity_score": 18.1, "severity_band": "minor roughness", "severity_colour": "#FFD54F"}}, {"type": "Feature", "geometry": {"type": "Point", "coordinates": [-0.8682, 52.2489]}, "properties": {"confidence_label": "pilot", "cluster_id": 25, "cells": 1, "max_drive_count": 5, "total_bursts": 5, "severity_score": 38.1, "severity_band": "minor roughness", "severity_colour": "#FFD54F"}}, {"type": "Feature", "geometry": {"type": "Point", "coordinates": [-0.8737, 52.249]}, "properties": {"confidence_label": "pilot", "cluster_id": 26, "cells": 1, "max_drive_count": 4, "total_bursts": 4, "severity_score": 19.2, "severity_band": "minor roughness", "severity_colour": "#FFD54F"}}, {"type": "Feature", "geometry": {"type": "Point", "coordinates": [-0.8681, 52.2491]}, "properties": {"confidence_label": "pilot", "cluster_id": 27, "cells": 1, "max_drive_count": 6, "total_bursts": 6, "severity_score": 42.4, "severity_band": "minor roughness", "severity_colour": "#FFD54F"}}, {"type": "Feature", "geometry": {"type": "Point", "coordinates": [-0.8676, 52.2494]}, "properties": {"confidence_label": "pilot", "cluster_id": 28, "cells": 1, "max_drive_count": 4, "total_bursts": 4, "severity_score": 5.7, "severity_band": "minor roughness", "severity_colour": "#FFD54F"}}, {"type": "Feature", "geometry": {"type": "Point", "coordinates": [-0.8707, 52.2495]}, "properties": {"confidence_label": "pilot", "cluster_id": 29, "cells": 2, "max_drive_count": 5, "total_bursts": 9, "severity_score": 29.3, "severity_band": "minor roughness", "severity_colour": "#FFD54F"}}, {"type": "Feature", "geometry": {"type": "Point", "coordinates": [-0.8699, 52.2496]}, "properties": {"confidence_label": "pilot", "cluster_id": 30, "cells": 1, "max_drive_count": 4, "total_bursts": 4, "severity_score": 8.9, "severity_band": "minor roughness", "severity_colour": "#FFD54F"}}, {"type": "Feature", "geometry": {"type": "Point", "coordinates": [-0.8693, 52.2497]}, "properties": {"confidence_label": "pilot", "cluster_id": 31, "cells": 1, "max_drive_count": 4, "total_bursts": 4, "severity_score": 5.7, "severity_band": "minor roughness", "severity_colour": "#FFD54F"}}, {"type": "Feature", "geometry": {"type": "Point", "coordinates": [-0.8688, 52.249775]}, "properties": {"confidence_label": "pilot", "cluster_id": 32, "cells": 4, "max_drive_count": 4, "total_bursts": 17, "severity_score": 24.4, "severity_band": "minor roughness", "severity_colour": "#FFD54F"}}, {"type": "Feature", "geometry": {"type": "Point", "coordinates": [-0.8679, 52.2497]}, "properties": {"confidence_label": "pilot", "cluster_id": 33, "cells": 3, "max_drive_count": 6, "total_bursts": 15, "severity_score": 50.6, "severity_band": "strong defect", "severity_colour": "#FB8C00"}}, {"type": "Feature", "geometry": {"type": "Point", "coordinates": [-0.8568, 52.2503]}, "properties": {"confidence_label": "pilot", "cluster_id": 34, "cells": 1, "max_drive_count": 4, "total_bursts": 4, "severity_score": 7.9, "severity_band": "minor roughness", "severity_colour": "#FFD54F"}}, {"type": "Feature", "geometry": {"type": "Point", "coordinates": [-0.8691, 52.2505]}, "properties": {"confidence_label": "pilot", "cluster_id": 35, "cells": 1, "max_drive_count": 4, "total_bursts": 4, "severity_score": 5.7, "severity_band": "minor roughness", "severity_colour": "#FFD54F"}}, {"type": "Feature", "geometry": {"type": "Point", "coordinates": [-0.8567428571428571, 52.25058571428571]}, "properties": {"confidence_label": "pilot", "cluster_id": 36, "cells": 7, "max_drive_count": 10, "total_bursts": 52, "severity_score": 87.7, "severity_band": "severe pothole", "severity_colour": "#E53935"}}, {"type": "Feature", "geometry": {"type": "Point", "coordinates": [-0.8554666666666666, 52.2508]}, "properties": {"confidence_label": "pilot", "cluster_id": 37, "cells": 12, "max_drive_count": 9, "total_bursts": 68, "severity_score": 71.6, "severity_band": "strong defect", "severity_colour": "#FB8C00"}}, {"type": "Feature", "geometry": {"type": "Point", "coordinates": [-0.85445, 52.251]}, "properties": {"confidence_label": "pilot", "cluster_id": 38, "cells": 2, "max_drive_count": 6, "total_bursts": 10, "severity_score": 49.5, "severity_band": "strong defect", "severity_colour": "#FB8C00"}}, {"type": "Feature", "geometry": {"type": "Point", "coordinates": [-0.8534, 52.2511]}, "properties": {"confidence_label": "pilot", "cluster_id": 39, "cells": 1, "max_drive_count": 4, "total_bursts": 4, "severity_score": 35.7, "severity_band": "minor roughness", "severity_colour": "#FFD54F"}}, {"type": "Feature", "geometry": {"type": "Point", "coordinates": [-0.8694, 52.2512]}, "properties": {"confidence_label": "pilot", "cluster_id": 40, "cells": 1, "max_drive_count": 5, "total_bursts": 5, "severity_score": 33.1, "severity_band": "minor roughness", "severity_colour": "#FFD54F"}}, {"type": "Feature", "geometry": {"type": "Point", "coordinates": [-0.8528333333333333, 52.251200000000004]}, "properties": {"confidence_label": "pilot", "cluster_id": 41, "cells": 3, "max_drive_count": 5, "total_bursts": 14, "severity_score": 34.7, "severity_band": "minor roughness", "severity_colour": "#FFD54F"}}, {"type": "Feature", "geometry": {"type": "Point", "coordinates": [-0.8521, 52.2513]}, "properties": {"confidence_label": "pilot", "cluster_id": 42, "cells": 1, "max_drive_count": 8, "total_bursts": 9, "severity_score": 55.8, "severity_band": "strong defect", "severity_colour": "#FB8C00"}}, {"type": "Feature", "geometry": {"type": "Point", "coordinates": [-0.8518, 52.2513]}, "properties": {"confidence_label": "pilot", "cluster_id": 43, "cells": 1, "max_drive_count": 4, "total_bursts": 4, "severity_score": 22.7, "severity_band": "minor roughness", "severity_colour": "#FFD54F"}}, {"type": "Feature", "geometry": {"type": "Point", "coordinates": [-0.8814, 52.2514]}, "properties": {"confidence_label": "pilot", "cluster_id": 44, "cells": 1, "max_drive_count": 4, "total_bursts": 4, "severity_score": 5.7, "severity_band": "minor roughness", "severity_colour": "#FFD54F"}}, {"type": "Feature", "geometry": {"type": "Point", "coordinates": [-0.8508, 52.2514]}, "properties": {"confidence_label": "pilot", "cluster_id": 45, "cells": 1, "max_drive_count": 5, "total_bursts": 5, "severity_score": 18.1, "severity_band": "minor roughness", "severity_colour": "#FFD54F"}}, {"type": "Feature", "geometry": {"type": "Point", "coordinates": [-0.8695, 52.2515]}, "properties": {"confidence_label": "pilot", "cluster_id": 46, "cells": 1, "max_drive_count": 4, "total_bursts": 4, "severity_score": 7.3, "severity_band": "minor roughness", "severity_colour": "#FFD54F"}}, {"type": "Feature", "geometry": {"type": "Point", "coordinates": [-0.8504, 52.2515]}, "properties": {"confidence_label": "pilot", "cluster_id": 47, "cells": 3, "max_drive_count": 5, "total_bursts": 14, "severity_score": 55.0, "severity_band": "strong defect", "severity_colour": "#FB8C00"}}, {"type": "Feature", "geometry": {"type": "Point", "coordinates": [-0.85, 52.2516]}, "properties": {"confidence_label": "pilot", "cluster_id": 48, "cells": 1, "max_drive_count": 4, "total_bursts": 4, "severity_score": 8.5, "severity_band": "minor roughness", "severity_colour": "#FFD54F"}}, {"type": "Feature", "geometry": {"type": "Point", "coordinates": [-0.8763, 52.2519]}, "properties": {"confidence_label": "pilot", "cluster_id": 49, "cells": 1, "max_drive_count": 4, "total_bursts": 4, "severity_score": 5.7, "severity_band": "minor roughness", "severity_colour": "#FFD54F"}}, {"type": "Feature", "geometry": {"type": "Point", "coordinates": [-0.8466, 52.2524]}, "properties": {"confidence_label": "pilot", "cluster_id": 50, "cells": 3, "max_drive_count": 7, "total_bursts": 16, "severity_score": 61.6, "severity_band": "strong defect", "severity_colour": "#FB8C00"}}, {"type": "Feature", "geometry": {"type": "Point", "coordinates": [-0.8454, 52.2526]}, "properties": {"confidence_label": "pilot", "cluster_id": 51, "cells": 2, "max_drive_count": 5, "total_bursts": 10, "severity_score": 25.8, "severity_band": "minor roughness", "severity_colour": "#FFD54F"}}, {"type": "Feature", "geometry": {"type": "Point", "coordinates": [-0.87, 52.2529]}, "properties": {"confidence_label": "pilot", "cluster_id": 52, "cells": 1, "max_drive_count": 5, "total_bursts": 5, "severity_score": 18.1, "severity_band": "minor roughness", "severity_colour": "#FFD54F"}}, {"type": "Feature", "geometry": {"type": "Point", "coordinates": [-0.8363, 52.2533]}, "properties": {"confidence_label": "pilot", "cluster_id": 53, "cells": 1, "max_drive_count": 4, "total_bursts": 4, "severity_score": 13.3, "severity_band": "minor roughness", "severity_colour": "#FFD54F"}}, {"type": "Feature", "geometry": {"type": "Point", "coordinates": [-0.83545, 52.2533]}, "properties": {"confidence_label": "pilot", "cluster_id": 54, "cells": 2, "max_drive_count": 4, "total_bursts": 8, "severity_score": 34.5, "severity_band": "minor roughness", "severity_colour": "#FFD54F"}}, {"type": "Feature", "geometry": {"type": "Point", "coordinates": [-0.8393, 52.2535]}, "properties": {"confidence_label": "pilot", "cluster_id": 55, "cells": 1, "max_drive_count": 4, "total_bursts": 4, "severity_score": 5.7, "severity_band": "minor roughness", "severity_colour": "#FFD54F"}}, {"type": "Feature", "geometry": {"type": "Point", "coordinates": [-0.8352, 52.2536]}, "properties": {"confidence_label": "pilot", "cluster_id": 56, "cells": 1, "max_drive_count": 5, "total_bursts": 5, "severity_score": 18.1, "severity_band": "minor roughness", "severity_colour": "#FFD54F"}}, {"type": "Feature", "geometry": {"type": "Point", "coordinates": [-0.83815, 52.2537]}, "properties": {"confidence_label": "pilot", "cluster_id": 57, "cells": 2, "max_drive_count": 5, "total_bursts": 10, "severity_score": 22.6, "severity_band": "minor roughness", "severity_colour": "#FFD54F"}}, {"type": "Feature", "geometry": {"type": "Point", "coordinates": [-0.8354, 52.2541]}, "properties": {"confidence_label": "pilot", "cluster_id": 58, "cells": 1, "max_drive_count": 4, "total_bursts": 4, "severity_score": 5.7, "severity_band": "minor roughness", "severity_colour": "#FFD54F"}}, {"type": "Feature", "geometry": {"type": "Point", "coordinates": [-0.8704, 52.2542]}, "properties": {"confidence_label": "pilot", "cluster_id": 59, "cells": 1, "max_drive_count": 4, "total_bursts": 5, "severity_score": 29.4, "severity_band": "minor roughness", "severity_colour": "#FFD54F"}}, {"type": "Feature", "geometry": {"type": "Point", "coordinates": [-0.8704, 52.25445]}, "properties": {"confidence_label": "pilot", "cluster_id": 60, "cells": 2, "max_drive_count": 4, "total_bursts": 8, "severity_score": 40.3, "severity_band": "minor roughness", "severity_colour": "#FFD54F"}}, {"type": "Feature", "geometry": {"type": "Point", "coordinates": [-0.8615, 52.2551]}, "properties": {"confidence_label": "pilot", "cluster_id": 61, "cells": 1, "max_drive_count": 4, "total_bursts": 4, "severity_score": 29.0, "severity_band": "minor roughness", "severity_colour": "#FFD54F"}}, {"type": "Feature", "geometry": {"type": "Point", "coordinates": [-0.8603, 52.2553]}, "properties": {"confidence_label": "pilot", "cluster_id": 62, "cells": 1, "max_drive_count": 4, "total_bursts": 4, "severity_score": 35.3, "severity_band": "minor roughness", "severity_colour": "#FFD54F"}}, {"type": "Feature", "geometry": {"type": "Point", "coordinates": [-0.8356, 52.2554]}, "properties": {"confidence_label": "pilot", "cluster_id": 63, "cells": 1, "max_drive_count": 5, "total_bursts": 7, "severity_score": 38.0, "severity_band": "minor roughness", "severity_colour": "#FFD54F"}}, {"type": "Feature", "geometry": {"type": "Point", "coordinates": [-0.8707, 52.25575]}, "properties": {"confidence_label": "pilot", "cluster_id": 64, "cells": 2, "max_drive_count": 6, "total_bursts": 10, "severity_score": 33.9, "severity_band": "minor roughness", "severity_colour": "#FFD54F"}}, {"type": "Feature", "geometry": {"type": "Point", "coordinates": [-0.856, 52.2558]}, "properties": {"confidence_label": "pilot", "cluster_id": 65, "cells": 1, "max_drive_count": 4, "total_bursts": 4, "severity_score": 7.7, "severity_band": "minor roughness", "severity_colour": "#FFD54F"}}, {"type": "Feature", "geometry": {"type": "Point", "coordinates": [-0.8361, 52.2559]}, "properties": {"confidence_label": "pilot", "cluster_id": 66, "cells": 1, "max_drive_count": 4, "total_bursts": 4, "severity_score": 35.2, "severity_band": "minor roughness", "severity_colour": "#FFD54F"}}, {"type": "Feature", "geometry": {"type": "Point", "coordinates": [-0.8708, 52.25605]}, "properties": {"confidence_label": "pilot", "cluster_id": 67, "cells": 2, "max_drive_count": 7, "total_bursts": 12, "severity_score": 68.7, "severity_band": "strong defect", "severity_colour": "#FB8C00"}}, {"type": "Feature", "geometry": {"type": "Point", "coordinates": [-0.8362, 52.2561]}, "properties": {"confidence_label": "pilot", "cluster_id": 68, "cells": 1, "max_drive_count": 4, "total_bursts": 4, "severity_score": 26.6, "severity_band": "minor roughness", "severity_colour": "#FFD54F"}}, {"type": "Feature", "geometry": {"type": "Point", "coordinates": [-0.8709, 52.2564]}, "properties": {"confidence_label": "pilot", "cluster_id": 69, "cells": 1, "max_drive_count": 4, "total_bursts": 4, "severity_score": 5.7, "severity_band": "minor roughness", "severity_colour": "#FFD54F"}}, {"type": "Feature", "geometry": {"type": "Point", "coordinates": [-0.871, 52.2571]}, "properties": {"confidence_label": "pilot", "cluster_id": 70, "cells": 1, "max_drive_count": 5, "total_bursts": 5, "severity_score": 21.6, "severity_band": "minor roughness", "severity_colour": "#FFD54F"}}, {"type": "Feature", "geometry": {"type": "Point", "coordinates": [-0.8373, 52.2571]}, "properties": {"confidence_label": "pilot", "cluster_id": 71, "cells": 1, "max_drive_count": 4, "total_bursts": 4, "severity_score": 35.0, "severity_band": "minor roughness", "severity_colour": "#FFD54F"}}, {"type": "Feature", "geometry": {"type": "Point", "coordinates": [-0.8376, 52.2572]}, "properties": {"confidence_label": "pilot", "cluster_id": 72, "cells": 1, "max_drive_count": 4, "total_bursts": 4, "severity_score": 13.0, "severity_band": "minor roughness", "severity_colour": "#FFD54F"}}, {"type": "Feature", "geometry": {"type": "Point", "coordinates": [-0.871, 52.2573]}, "properties": {"confidence_label": "pilot", "cluster_id": 73, "cells": 1, "max_drive_count": 4, "total_bursts": 4, "severity_score": 7.7, "severity_band": "minor roughness", "severity_colour": "#FFD54F"}}, {"type": "Feature", "geometry": {"type": "Point", "coordinates": [-0.8707, 52.2574]}, "properties": {"confidence_label": "pilot", "cluster_id": 74, "cells": 1, "max_drive_count": 4, "total_bursts": 4, "severity_score": 16.1, "severity_band": "minor roughness", "severity_colour": "#FFD54F"}}, {"type": "Feature", "geometry": {"type": "Point", "coordinates": [-0.8383, 52.2574]}, "properties": {"confidence_label": "pilot", "cluster_id": 75, "cells": 1, "max_drive_count": 4, "total_bursts": 4, "severity_score": 16.2, "severity_band": "minor roughness", "severity_colour": "#FFD54F"}}, {"type": "Feature", "geometry": {"type": "Point", "coordinates": [-0.8696, 52.2576]}, "properties": {"confidence_label": "pilot", "cluster_id": 76, "cells": 1, "max_drive_count": 4, "total_bursts": 4, "severity_score": 5.7, "severity_band": "minor roughness", "severity_colour": "#FFD54F"}}, {"type": "Feature", "geometry": {"type": "Point", "coordinates": [-0.8391, 52.2581]}, "properties": {"confidence_label": "pilot", "cluster_id": 77, "cells": 1, "max_drive_count": 4, "total_bursts": 4, "severity_score": 7.5, "severity_band": "minor roughness", "severity_colour": "#FFD54F"}}, {"type": "Feature", "geometry": {"type": "Point", "coordinates": [-0.8548, 52.2591]}, "properties": {"confidence_label": "pilot", "cluster_id": 78, "cells": 1, "max_drive_count": 4, "total_bursts": 4, "severity_score": 5.7, "severity_band": "minor roughness", "severity_colour": "#FFD54F"}}, {"type": "Feature", "geometry": {"type": "Point", "coordinates": [-0.8536, 52.2597]}, "properties": {"confidence_label": "pilot", "cluster_id": 79, "cells": 1, "max_drive_count": 4, "total_bursts": 4, "severity_score": 5.7, "severity_band": "minor roughness", "severity_colour": "#FFD54F"}}, {"type": "Feature", "geometry": {"type": "Point", "coordinates": [-0.8524, 52.2606]}, "properties": {"confidence_label": "pilot", "cluster_id": 80, "cells": 1, "max_drive_count": 4, "total_bursts": 4, "severity_score": 14.9, "severity_band": "minor roughness", "severity_colour": "#FFD54F"}}, {"type": "Feature", "geometry": {"type": "Point", "coordinates": [-0.84885, 52.260850000000005]}, "properties": {"confidence_label": "pilot", "cluster_id": 81, "cells": 4, "max_drive_count": 6, "total_bursts": 22, "severity_score": 52.3, "severity_band": "strong defect", "severity_colour": "#FB8C00"}}, {"type": "Feature", "geometry": {"type": "Point", "coordinates": [-0.85255, 52.260850000000005]}, "properties": {"confidence_label": "pilot", "cluster_id": 82, "cells": 2, "max_drive_count": 4, "total_bursts": 12, "severity_score": 46.6, "severity_band": "strong defect", "severity_colour": "#FB8C00"}}, {"type": "Feature", "geometry": {"type": "Point", "coordinates": [-0.85275, 52.26115]}, "properties": {"confidence_label": "pilot", "cluster_id": 83, "cells": 2, "max_drive_count": 4, "total_bursts": 10, "severity_score": 42.4, "severity_band": "minor roughness", "severity_colour": "#FFD54F"}}, {"type": "Feature", "geometry": {"type": "Point", "coordinates": [-0.8409, 52.2613]}, "properties": {"confidence_label": "pilot", "cluster_id": 84, "cells": 1, "max_drive_count": 4, "total_bursts": 4, "severity_score": 19.0, "severity_band": "minor roughness", "severity_colour": "#FFD54F"}}, {"type": "Feature", "geometry": {"type": "Point", "coordinates": [-0.8529, 52.2614]}, "properties": {"confidence_label": "pilot", "cluster_id": 85, "cells": 1, "max_drive_count": 4, "total_bursts": 6, "severity_score": 28.8, "severity_band": "minor roughness", "severity_colour": "#FFD54F"}}, {"type": "Feature", "geometry": {"type": "Point", "coordinates": [-0.85335, 52.26175]}, "properties": {"confidence_label": "pilot", "cluster_id": 86, "cells": 2, "max_drive_count": 4, "total_bursts": 12, "severity_score": 31.8, "severity_band": "minor roughness", "severity_colour": "#FFD54F"}}, {"type": "Feature", "geometry": {"type": "Point", "coordinates": [-0.8529, 52.2622]}, "properties": {"confidence_label": "pilot", "cluster_id": 87, "cells": 1, "max_drive_count": 4, "total_bursts": 6, "severity_score": 49.0, "severity_band": "strong defect", "severity_colour": "#FB8C00"}}, {"type": "Feature", "geometry": {"type": "Point", "coordinates": [-0.8527, 52.2624]}, "properties": {"confidence_label": "pilot", "cluster_id": 88, "cells": 1, "max_drive_count": 4, "total_bursts": 4, "severity_score": 24.5, "severity_band": "minor roughness", "severity_colour": "#FFD54F"}}, {"type": "Feature", "geometry": {"type": "Point", "coordinates": [-0.8502, 52.2631]}, "properties": {"confidence_label": "pilot", "cluster_id": 89, "cells": 1, "max_drive_count": 4, "total_bursts": 4, "severity_score": 12.8, "severity_band": "minor roughness", "severity_colour": "#FFD54F"}}, {"type": "Feature", "geometry": {"type": "Point", "coordinates": [-0.8423, 52.2637]}, "properties": {"confidence_label": "pilot", "cluster_id": 90, "cells": 1, "max_drive_count": 4, "total_bursts": 4, "severity_score": 10.5, "severity_band": "minor roughness", "severity_colour": "#FFD54F"}}, {"type": "Feature", "geometry": {"type": "Point", "coordinates": [-0.84275, 52.264325]}, "properties": {"confidence_label": "pilot", "cluster_id": 91, "cells": 4, "max_drive_count": 5, "total_bursts": 18, "severity_score": 38.7, "severity_band": "minor roughness", "severity_colour": "#FFD54F"}}, {"type": "Feature", "geometry": {"type": "Point", "coordinates": [-0.84315, 52.2646]}, "properties": {"confidence_label": "pilot", "cluster_id": 92, "cells": 2, "max_drive_count": 5, "total_bursts": 10, "severity_score": 35.0, "severity_band": "minor roughness", "severity_colour": "#FFD54F"}}, {"type": "Feature", "geometry": {"type": "Point", "coordinates": [-0.8427, 52.26475]}, "properties": {"confidence_label": "pilot", "cluster_id": 93, "cells": 2, "max_drive_count": 5, "total_bursts": 10, "severity_score": 52.6, "severity_band": "strong defect", "severity_colour": "#FB8C00"}}, {"type": "Feature", "geometry": {"type": "Point", "coordinates": [-0.8432, 52.265]}, "properties": {"confidence_label": "pilot", "cluster_id": 94, "cells": 1, "max_drive_count": 4, "total_bursts": 4, "severity_score": 34.4, "severity_band": "minor roughness", "severity_colour": "#FFD54F"}}, {"type": "Feature", "geometry": {"type": "Point", "coordinates": [-0.8443, 52.2703]}, "properties": {"confidence_label": "pilot", "cluster_id": 95, "cells": 1, "max_drive_count": 4, "total_bursts": 4, "severity_score": 35.7, "severity_band": "minor roughness", "severity_colour": "#FFD54F"}}, {"type": "Feature", "geometry": {"type": "Point", "coordinates": [-0.8453, 52.2718]}, "properties": {"confidence_label": "pilot", "cluster_id": 96, "cells": 1, "max_drive_count": 4, "total_bursts": 4, "severity_score": 10.6, "severity_band": "minor roughness", "severity_colour": "#FFD54F"}}, {"type": "Feature", "geometry": {"type": "Point", "coordinates": [-0.8462, 52.2727]}, "properties": {"confidence_label": "pilot", "cluster_id": 97, "cells": 1, "max_drive_count": 4, "total_bursts": 4, "severity_score": 5.7, "severity_band": "minor roughness", "severity_colour": "#FFD54F"}}, {"type": "Feature", "geometry": {"type": "Point", "coordinates": [-0.8463, 52.2731]}, "properties": {"confidence_label": "pilot", "cluster_id": 98, "cells": 1, "max_drive_count": 4, "total_bursts": 4, "severity_score": 10.4, "severity_band": "minor roughness", "severity_colour": "#FFD54F"}}, {"type": "Feature", "geometry": {"type": "Point", "coordinates": [-0.8464, 52.2749]}, "properties": {"confidence_label": "pilot", "cluster_id": 99, "cells": 1, "max_drive_count": 4, "total_bursts": 4, "severity_score": 5.7, "severity_band": "minor roughness", "severity_colour": "#FFD54F"}}, {"type": "Feature", "geometry": {"type": "Point", "coordinates": [-0.8461, 52.2751]}, "properties": {"confidence_label": "pilot", "cluster_id": 100, "cells": 1, "max_drive_count": 4, "total_bursts": 4, "severity_score": 5.7, "severity_band": "minor roughness", "severity_colour": "#FFD54F"}}, {"type": "Feature", "geometry": {"type": "Point", "coordinates": [-0.8456, 52.2757]}, "properties": {"confidence_label": "pilot", "cluster_id": 101, "cells": 1, "max_drive_count": 4, "total_bursts": 4, "severity_score": 13.9, "severity_band": "minor roughness", "severity_colour": "#FFD54F"}}, {"type": "Feature", "geometry": {"type": "Point", "coordinates": [-0.8461, 52.2758]}, "properties": {"confidence_label": "pilot", "cluster_id": 102, "cells": 1, "max_drive_count": 4, "total_bursts": 4, "severity_score": 6.2, "severity_band": "minor roughness", "severity_colour": "#FFD54F"}}, {"type": "Feature", "geometry": {"type": "Point", "coordinates": [-0.8458, 52.2771]}, "properties": {"confidence_label": "pilot", "cluster_id": 103, "cells": 1, "max_drive_count": 4, "total_bursts": 4, "severity_score": 16.0, "severity_band": "minor roughness", "severity_colour": "#FFD54F"}}, {"type": "Feature", "geometry": {"type": "Point", "coordinates": [-0.8456, 52.2773]}, "properties": {"confidence_label": "pilot", "cluster_id": 104, "cells": 1, "max_drive_count": 5, "total_bursts": 5, "severity_score": 35.0, "severity_band": "minor roughness", "severity_colour": "#FFD54F"}}, {"type": "Feature", "geometry": {"type": "Point", "coordinates": [-0.8454, 52.2777]}, "properties": {"confidence_label": "pilot", "cluster_id": 105, "cells": 1, "max_drive_count": 5, "total_bursts": 5, "severity_score": 18.1, "severity_band": "minor roughness", "severity_colour": "#FFD54F"}}, {"type": "Feature", "geometry": {"type": "Point", "coordinates": [-0.8422, 52.2838]}, "properties": {"confidence_label": "pilot", "cluster_id": 106, "cells": 1, "max_drive_count": 4, "total_bursts": 5, "severity_score": 18.6, "severity_band": "minor roughness", "severity_colour": "#FFD54F"}}, {"type": "Feature", "geometry": {"type": "Point", "coordinates": [-0.8416, 52.2846]}, "properties": {"confidence_label": "pilot", "cluster_id": 107, "cells": 1, "max_drive_count": 4, "total_bursts": 4, "severity_score": 5.7, "severity_band": "minor roughness", "severity_colour": "#FFD54F"}}, {"type": "Feature", "geometry": {"type": "Point", "coordinates": [-0.8381, 52.28875]}, "properties": {"confidence_label": "pilot", "cluster_id": 108, "cells": 2, "max_drive_count": 4, "total_bursts": 8, "severity_score": 15.9, "severity_band": "minor roughness", "severity_colour": "#FFD54F"}}, {"type": "Feature", "geometry": {"type": "Point", "coordinates": [-0.8363, 52.289]}, "properties": {"confidence_label": "pilot", "cluster_id": 109, "cells": 1, "max_drive_count": 4, "total_bursts": 5, "severity_score": 13.8, "severity_band": "minor roughness", "severity_colour": "#FFD54F"}}, {"type": "Feature", "geometry": {"type": "Point", "coordinates": [-0.8373, 52.2892]}, "properties": {"confidence_label": "pilot", "cluster_id": 110, "cells": 1, "max_drive_count": 4, "total_bursts": 4, "severity_score": 5.7, "severity_band": "minor roughness", "severity_colour": "#FFD54F"}}, {"type": "Feature", "geometry": {"type": "Point", "coordinates": [-0.8363, 52.2892]}, "properties": {"confidence_label": "pilot", "cluster_id": 111, "cells": 1, "max_drive_count": 4, "total_bursts": 4, "severity_score": 5.7, "severity_band": "minor roughness", "severity_colour": "#FFD54F"}}, {"type": "Feature", "geometry": {"type": "Point", "coordinates": [-1.3635, 53.3265]}, "properties": {"confidence_label": "pilot", "cluster_id": 112, "cells": 1, "max_drive_count": 5, "total_bursts": 5, "severity_score": 20.0, "severity_band": "minor roughness", "severity_colour": "#FFD54F"}}, {"type": "Feature", "geometry": {"type": "Point", "coordinates": [-1.3447, 53.3279]}, "properties": {"confidence_label": "pilot", "cluster_id": 113, "cells": 1, "max_drive_count": 5, "total_bursts": 5, "severity_score": 18.1, "severity_band": "minor roughness", "severity_colour": "#FFD54F"}}, {"type": "Feature", "geometry": {"type": "Point", "coordinates": [-1.34505, 53.328]}, "properties": {"confidence_label": "pilot", "cluster_id": 114, "cells": 2, "max_drive_count": 5, "total_bursts": 10, "severity_score": 33.1, "severity_band": "minor roughness", "severity_colour": "#FFD54F"}}, {"type": "Feature", "geometry": {"type": "Point", "coordinates": [-1.3811, 53.335]}, "properties": {"confidence_label": "pilot", "cluster_id": 115, "cells": 1, "max_drive_count": 4, "total_bursts": 4, "severity_score": 5.7, "severity_band": "minor roughness", "severity_colour": "#FFD54F"}}, {"type": "Feature", "geometry": {"type": "Point", "coordinates": [-1.3898, 53.341]}, "properties": {"confidence_label": "pilot", "cluster_id": 116, "cells": 1, "max_drive_count": 5, "total_bursts": 5, "severity_score": 30.6, "severity_band": "minor roughness", "severity_colour": "#FFD54F"}}, {"type": "Feature", "geometry": {"type": "Point", "coordinates": [-1.3573, 53.3496]}, "properties": {"confidence_label": "pilot", "cluster_id": 117, "cells": 1, "max_drive_count": 4, "total_bursts": 5, "severity_score": 22.7, "severity_band": "minor roughness", "severity_colour": "#FFD54F"}}, {"type": "Feature", "geometry": {"type": "Point", "coordinates": [-1.4044500000000002, 53.35155]}, "properties": {"confidence_label": "pilot", "cluster_id": 118, "cells": 2, "max_drive_count": 5, "total_bursts": 9, "severity_score": 19.3, "severity_band": "minor roughness", "severity_colour": "#FFD54F"}}, {"type": "Feature", "geometry": {"type": "Point", "coordinates": [-1.3287, 53.3547]}, "properties": {"confidence_label": "pilot", "cluster_id": 119, "cells": 1, "max_drive_count": 4, "total_bursts": 4, "severity_score": 15.6, "severity_band": "minor roughness", "severity_colour": "#FFD54F"}}, {"type": "Feature", "geometry": {"type": "Point", "coordinates": [-1.4348, 53.3647]}, "properties": {"confidence_label": "pilot", "cluster_id": 120, "cells": 1, "max_drive_count": 4, "total_bursts": 4, "severity_score": 5.7, "severity_band": "minor roughness", "severity_colour": "#FFD54F"}}, {"type": "Feature", "geometry": {"type": "Point", "coordinates": [-1.4548, 53.3797]}, "properties": {"confidence_label": "pilot", "cluster_id": 121, "cells": 1, "max_drive_count": 5, "total_bursts": 5, "severity_score": 21.8, "severity_band": "minor roughness", "severity_colour": "#FFD54F"}}, {"type": "Feature", "geometry": {"type": "Point", "coordinates": [-1.4548, 53.3799]}, "properties": {"confidence_label": "pilot", "cluster_id": 122, "cells": 1, "max_drive_count": 7, "total_bursts": 7, "severity_score": 42.9, "severity_band": "minor roughness", "severity_colour": "#FFD54F"}}, {"type": "Feature", "geometry": {"type": "Point", "coordinates": [-1.5345, 54.7745]}, "properties": {"confidence_label": "pilot", "cluster_id": 123, "cells": 1, "max_drive_count": 4, "total_bursts": 4, "severity_score": 5.7, "severity_band": "minor roughness", "severity_colour": "#FFD54F"}}, {"type": "Feature", "geometry": {"type": "Point", "coordinates": [-1.5349, 54.7747]}, "properties": {"confidence_label": "pilot", "cluster_id": 124, "cells": 1, "max_drive_count": 4, "total_bursts": 4, "severity_score": 10.5, "severity_band": "minor roughness", "severity_colour": "#FFD54F"}}, {"type": "Feature", "geometry": {"type": "Point", "coordinates": [-1.5399, 54.7778]}, "properties": {"confidence_label": "pilot", "cluster_id": 125, "cells": 1, "max_drive_count": 4, "total_bursts": 4, "severity_score": 5.7, "severity_band": "minor roughness", "severity_colour": "#FFD54F"}}, {"type": "Feature", "geometry": {"type": "Point", "coordinates": [-1.5793, 54.778]}, "properties": {"confidence_label": "pilot", "cluster_id": 126, "cells": 1, "max_drive_count": 4, "total_bursts": 4, "severity_score": 17.3, "severity_band": "minor roughness", "severity_colour": "#FFD54F"}}, {"type": "Feature", "geometry": {"type": "Point", "coordinates": [-1.5818, 54.7811]}, "properties": {"confidence_label": "pilot", "cluster_id": 127, "cells": 1, "max_drive_count": 4, "total_bursts": 4, "severity_score": 7.8, "severity_band": "minor roughness", "severity_colour": "#FFD54F"}}, {"type": "Feature", "geometry": {"type": "Point", "coordinates": [-1.5863, 54.785]}, "properties": {"confidence_label": "pilot", "cluster_id": 128, "cells": 1, "max_drive_count": 4, "total_bursts": 4, "severity_score": 27.9, "severity_band": "minor roughness", "severity_colour": "#FFD54F"}}, {"type": "Feature", "geometry": {"type": "Point", "coordinates": [-1.52135, 54.7851]}, "properties": {"confidence_label": "pilot", "cluster_id": 129, "cells": 2, "max_drive_count": 4, "total_bursts": 9, "severity_score": 26.2, "severity_band": "minor roughness", "severity_colour": "#FFD54F"}}, {"type": "Feature", "geometry": {"type": "Point", "coordinates": [-1.536, 54.7854]}, "properties": {"confidence_label": "pilot", "cluster_id": 130, "cells": 1, "max_drive_count": 4, "total_bursts": 5, "severity_score": 15.7, "severity_band": "minor roughness", "severity_colour": "#FFD54F"}}, {"type": "Feature", "geometry": {"type": "Point", "coordinates": [-1.5201, 54.78595]}, "properties": {"confidence_label": "pilot", "cluster_id": 131, "cells": 2, "max_drive_count": 6, "total_bursts": 13, "severity_score": 46.7, "severity_band": "strong defect", "severity_colour": "#FB8C00"}}, {"type": "Feature", "geometry": {"type": "Point", "coordinates": [-1.5285, 54.7862]}, "properties": {"confidence_label": "pilot", "cluster_id": 132, "cells": 1, "max_drive_count": 4, "total_bursts": 4, "severity_score": 5.7, "severity_band": "minor roughness", "severity_colour": "#FFD54F"}}, {"type": "Feature", "geometry": {"type": "Point", "coordinates": [-1.5261, 54.7868]}, "properties": {"confidence_label": "pilot", "cluster_id": 133, "cells": 1, "max_drive_count": 4, "total_bursts": 4, "severity_score": 5.7, "severity_band": "minor roughness", "severity_colour": "#FFD54F"}}, {"type": "Feature", "geometry": {"type": "Point", "coordinates": [-1.5216, 54.7879]}, "properties": {"confidence_label": "pilot", "cluster_id": 134, "cells": 2, "max_drive_count": 6, "total_bursts": 14, "severity_score": 49.8, "severity_band": "strong defect", "severity_colour": "#FB8C00"}}, {"type": "Feature", "geometry": {"type": "Point", "coordinates": [-1.5472, 54.7885]}, "properties": {"confidence_label": "pilot", "cluster_id": 135, "cells": 1, "max_drive_count": 4, "total_bursts": 4, "severity_score": 5.7, "severity_band": "minor roughness", "severity_colour": "#FFD54F"}}, {"type": "Feature", "geometry": {"type": "Point", "coordinates": [-1.548, 54.7892]}, "properties": {"confidence_label": "pilot", "cluster_id": 136, "cells": 1, "max_drive_count": 4, "total_bursts": 4, "severity_score": 5.7, "severity_band": "minor roughness", "severity_colour": "#FFD54F"}}]}