{"type": "FeatureCollection", "features": [{"type": "Feature", "geometry": {"type": "Point", "coordinates": [-0.8928, 52.1997]}, "properties": {"confidence_label": "candidate", "cluster_id": 0, "cells": 1, "max_drive_count": 3, "total_bursts": 3}}, {"type": "Feature", "geometry": {"type": "Point", "coordinates": [-0.871, 52.2313]}, "properties": {"confidence_label": "candidate", "cluster_id": 1, "cells": 1, "max_drive_count": 3, "total_bursts": 3}}, {"type": "Feature", "geometry": {"type": "Point", "coordinates": [-0.8698, 52.232]}, "properties": {"confidence_label": "candidate", "cluster_id": 2, "cells": 1, "max_drive_count": 3, "total_bursts": 3}}, {"type": "Feature", "geometry": {"type": "Point", "coordinates": [-0.862, 52.2343]}, "properties": {"confidence_label": "candidate", "cluster_id": 3, "cells": 1, "max_drive_count": 3, "total_bursts": 3}}, {"type": "Feature", "geometry": {"type": "Point", "coordinates": [-0.8801, 52.2381]}, "properties": {"confidence_label": "candidate", "cluster_id": 4, "cells": 1, "max_drive_count": 3, "total_bursts": 4}}, {"type": "Feature", "geometry": {"type": "Point", "coordinates": [-0.8719, 52.2391]}, "properties": {"confidence_label": "candidate", "cluster_id": 5, "cells": 1, "max_drive_count": 3, "total_bursts": 3}}, {"type": "Feature", "geometry": {"type": "Point", "coordinates": [-0.869, 52.2395]}, "properties": {"confidence_label": "candidate", "cluster_id": 6, "cells": 1, "max_drive_count": 3, "total_bursts": 3}}, {"type": "Feature", "geometry": {"type": "Point", "coordinates": [-0.8615, 52.2402]}, "properties": {"confidence_label": "candidate", "cluster_id": 7, "cells": 1, "max_drive_count": 3, "total_bursts": 3}}, {"type": "Feature", "geometry": {"type": "Point", "coordinates": [-0.862475, 52.2413875]}, "properties": {"confidence_label": "candidate", "cluster_id": 8, "cells": 8, "max_drive_count": 9, "total_bursts": 40}}, {"type": "Feature", "geometry": {"type": "Point", "coordinates": [-0.86275, 52.2418]}, "properties": {"confidence_label": "candidate", "cluster_id": 9, "cells": 2, "max_drive_count": 5, "total_bursts": 8}}, {"type": "Feature", "geometry": {"type": "Point", "coordinates": [-0.8631624999999999, 52.24225]}, "properties": {"confidence_label": "candidate", "cluster_id": 10, "cells": 8, "max_drive_count": 10, "total_bursts": 47}}, {"type": "Feature", "geometry": {"type": "Point", "coordinates": [-0.8636500000000001, 52.243024999999996]}, "properties": {"confidence_label": "candidate", "cluster_id": 11, "cells": 12, "max_drive_count": 15, "total_bursts": 94}}, {"type": "Feature", "geometry": {"type": "Point", "coordinates": [-0.8641, 52.2439]}, "properties": {"confidence_label": "candidate", "cluster_id": 12, "cells": 1, "max_drive_count": 3, "total_bursts": 3}}, {"type": "Feature", "geometry": {"type": "Point", "coordinates": [-0.8642, 52.2441]}, "properties": {"confidence_label": "candidate", "cluster_id": 13, "cells": 1, "max_drive_count": 4, "total_bursts": 4}}, {"type": "Feature", "geometry": {"type": "Point", "coordinates": [-0.8685, 52.2444]}, "properties": {"confidence_label": "candidate", "cluster_id": 14, "cells": 1, "max_drive_count": 3, "total_bursts": 3}}, {"type": "Feature", "geometry": {"type": "Point", "coordinates": [-0.8599, 52.2444]}, "properties": {"confidence_label": "candidate", "cluster_id": 15, "cells": 1, "max_drive_count": 4, "total_bursts": 4}}, {"type": "Feature", "geometry": {"type": "Point", "coordinates": [-0.8671, 52.2446]}, "properties": {"confidence_label": "candidate", "cluster_id": 16, "cells": 1, "max_drive_count": 3, "total_bursts": 3}}, {"type": "Feature", "geometry": {"type": "Point", "coordinates": [-0.8594, 52.2446]}, "properties": {"confidence_label": "candidate", "cluster_id": 17, "cells": 1, "max_drive_count": 4, "total_bursts": 4}}, {"type": "Feature", "geometry": {"type": "Point", "coordinates": [-0.8666, 52.2447]}, "properties": {"confidence_label": "candidate", "cluster_id": 18, "cells": 1, "max_drive_count": 3, "total_bursts": 3}}, {"type": "Feature", "geometry": {"type": "Point", "coordinates": [-0.8707, 52.2448]}, "properties": {"confidence_label": "candidate", "cluster_id": 19, "cells": 1, "max_drive_count": 3, "total_bursts": 3}}, {"type": "Feature", "geometry": {"type": "Point", "coordinates": [-0.8583, 52.245]}, "properties": {"confidence_label": "candidate", "cluster_id": 20, "cells": 1, "max_drive_count": 5, "total_bursts": 5}}, {"type": "Feature", "geometry": {"type": "Point", "coordinates": [-0.8646, 52.2451]}, "properties": {"confidence_label": "candidate", "cluster_id": 21, "cells": 1, "max_drive_count": 6, "total_bursts": 6}}, {"type": "Feature", "geometry": {"type": "Point", "coordinates": [-0.8708, 52.2452]}, "properties": {"confidence_label": "candidate", "cluster_id": 22, "cells": 1, "max_drive_count": 4, "total_bursts": 4}}, {"type": "Feature", "geometry": {"type": "Point", "coordinates": [-0.8646666666666668, 52.2454]}, "properties": {"confidence_label": "candidate", "cluster_id": 23, "cells": 3, "max_drive_count": 6, "total_bursts": 12}}, {"type": "Feature", "geometry": {"type": "Point", "coordinates": [-0.85745, 52.24535]}, "properties": {"confidence_label": "candidate", "cluster_id": 24, "cells": 2, "max_drive_count": 3, "total_bursts": 6}}, {"type": "Feature", "geometry": {"type": "Point", "coordinates": [-0.8705, 52.2456]}, "properties": {"confidence_label": "candidate", "cluster_id": 25, "cells": 1, "max_drive_count": 3, "total_bursts": 3}}, {"type": "Feature", "geometry": {"type": "Point", "coordinates": [-0.8568666666666666, 52.245666666666665]}, "properties": {"confidence_label": "candidate", "cluster_id": 26, "cells": 3, "max_drive_count": 5, "total_bursts": 11}}, {"type": "Feature", "geometry": {"type": "Point", "coordinates": [-0.8648, 52.2457]}, "properties": {"confidence_label": "candidate", "cluster_id": 27, "cells": 1, "max_drive_count": 5, "total_bursts": 5}}, {"type": "Feature", "geometry": {"type": "Point", "coordinates": [-0.86485, 52.2459]}, "properties": {"confidence_label": "candidate", "cluster_id": 28, "cells": 2, "max_drive_count": 3, "total_bursts": 6}}, {"type": "Feature", "geometry": {"type": "Point", "coordinates": [-0.8565, 52.246]}, "properties": {"confidence_label": "candidate", "cluster_id": 29, "cells": 1, "max_drive_count": 5, "total_bursts": 5}}, {"type": "Feature", "geometry": {"type": "Point", "coordinates": [-0.8651, 52.2462]}, "properties": {"confidence_label": "candidate", "cluster_id": 30, "cells": 1, "max_drive_count": 6, "total_bursts": 6}}, {"type": "Feature", "geometry": {"type": "Point", "coordinates": [-0.8562, 52.2463]}, "properties": {"confidence_label": "candidate", "cluster_id": 31, "cells": 1, "max_drive_count": 4, "total_bursts": 4}}, {"type": "Feature", "geometry": {"type": "Point", "coordinates": [-0.8657375, 52.247025]}, "properties": {"confidence_label": "candidate", "cluster_id": 32, "cells": 8, "max_drive_count": 6, "total_bursts": 31}}, {"type": "Feature", "geometry": {"type": "Point", "coordinates": [-0.856, 52.2472]}, "properties": {"confidence_label": "candidate", "cluster_id": 33, "cells": 1, "max_drive_count": 4, "total_bursts": 4}}, {"type": "Feature", "geometry": {"type": "Point", "coordinates": [-0.8668, 52.2477]}, "properties": {"confidence_label": "candidate", "cluster_id": 34, "cells": 1, "max_drive_count": 3, "total_bursts": 3}}, {"type": "Feature", "geometry": {"type": "Point", "coordinates": [-0.8673, 52.248]}, "properties": {"confidence_label": "candidate", "cluster_id": 35, "cells": 1, "max_drive_count": 3, "total_bursts": 3}}, {"type": "Feature", "geometry": {"type": "Point", "coordinates": [-0.86755, 52.2482]}, "properties": {"confidence_label": "candidate", "cluster_id": 36, "cells": 2, "max_drive_count": 5, "total_bursts": 8}}, {"type": "Feature", "geometry": {"type": "Point", "coordinates": [-0.8679222222222223, 52.24914444444445]}, "properties": {"confidence_label": "candidate", "cluster_id": 37, "cells": 18, "max_drive_count": 6, "total_bursts": 69}}, {"type": "Feature", "geometry": {"type": "Point", "coordinates": [-0.8563, 52.2484]}, "properties": {"confidence_label": "candidate", "cluster_id": 38, "cells": 1, "max_drive_count": 4, "total_bursts": 4}}, {"type": "Feature", "geometry": {"type": "Point", "coordinates": [-0.8767, 52.2488]}, "properties": {"confidence_label": "candidate", "cluster_id": 39, "cells": 1, "max_drive_count": 3, "total_bursts": 3}}, {"type": "Feature", "geometry": {"type": "Point", "coordinates": [-0.8737, 52.249]}, "properties": {"confidence_label": "candidate", "cluster_id": 40, "cells": 1, "max_drive_count": 4, "total_bursts": 4}}, {"type": "Feature", "geometry": {"type": "Point", "coordinates": [-0.8728, 52.24915]}, "properties": {"confidence_label": "candidate", "cluster_id": 41, "cells": 4, "max_drive_count": 3, "total_bursts": 12}}, {"type": "Feature", "geometry": {"type": "Point", "coordinates": [-0.8685, 52.2491]}, "properties": {"confidence_label": "candidate", "cluster_id": 42, "cells": 1, "max_drive_count": 3, "total_bursts": 3}}, {"type": "Feature", "geometry": {"type": "Point", "coordinates": [-0.8713, 52.2494]}, "properties": {"confidence_label": "candidate", "cluster_id": 43, "cells": 1, "max_drive_count": 3, "total_bursts": 3}}, {"type": "Feature", "geometry": {"type": "Point", "coordinates": [-0.8706999999999999, 52.24949999999999]}, "properties": {"confidence_label": "candidate", "cluster_id": 44, "cells": 3, "max_drive_count": 5, "total_bursts": 12}}, {"type": "Feature", "geometry": {"type": "Point", "coordinates": [-0.8778, 52.2496]}, "properties": {"confidence_label": "candidate", "cluster_id": 45, "cells": 1, "max_drive_count": 3, "total_bursts": 3}}, {"type": "Feature", "geometry": {"type": "Point", "coordinates": [-0.8699, 52.2496]}, "properties": {"confidence_label": "candidate", "cluster_id": 46, "cells": 1, "max_drive_count": 4, "total_bursts": 4}}, {"type": "Feature", "geometry": {"type": "Point", "coordinates": [-0.8693, 52.2497]}, "properties": {"confidence_label": "candidate", "cluster_id": 47, "cells": 1, "max_drive_count": 4, "total_bursts": 4}}, {"type": "Feature", "geometry": {"type": "Point", "coordinates": [-0.8687799999999999, 52.249759999999995]}, "properties": {"confidence_label": "candidate", "cluster_id": 48, "cells": 5, "max_drive_count": 4, "total_bursts": 20}}, {"type": "Feature", "geometry": {"type": "Point", "coordinates": [-0.8689, 52.2501]}, "properties": {"confidence_label": "candidate", "cluster_id": 49, "cells": 1, "max_drive_count": 3, "total_bursts": 3}}, {"type": "Feature", "geometry": {"type": "Point", "coordinates": [-0.8691, 52.2505]}, "properties": {"confidence_label": "candidate", "cluster_id": 50, "cells": 1, "max_drive_count": 4, "total_bursts": 4}}, {"type": "Feature", "geometry": {"type": "Point", "coordinates": [-0.8567833333333333, 52.250566666666664]}, "properties": {"confidence_label": "candidate", "cluster_id": 51, "cells": 6, "max_drive_count": 7, "total_bursts": 31}}, {"type": "Feature", "geometry": {"type": "Point", "coordinates": [-0.8553125, 52.250825]}, "properties": {"confidence_label": "candidate", "cluster_id": 52, "cells": 16, "max_drive_count": 6, "total_bursts": 70}}, {"type": "Feature", "geometry": {"type": "Point", "coordinates": [-0.8802, 52.2508]}, "properties": {"confidence_label": "candidate", "cluster_id": 53, "cells": 1, "max_drive_count": 3, "total_bursts": 3}}, {"type": "Feature", "geometry": {"type": "Point", "coordinates": [-0.8692, 52.2508]}, "properties": {"confidence_label": "candidate", "cluster_id": 54, "cells": 1, "max_drive_count": 3, "total_bursts": 3}}, {"type": "Feature", "geometry": {"type": "Point", "coordinates": [-0.8873, 52.2511]}, "properties": {"confidence_label": "candidate", "cluster_id": 55, "cells": 1, "max_drive_count": 3, "total_bursts": 3}}, {"type": "Feature", "geometry": {"type": "Point", "coordinates": [-0.86935, 52.251149999999996]}, "properties": {"confidence_label": "candidate", "cluster_id": 56, "cells": 2, "max_drive_count": 5, "total_bursts": 8}}, {"type": "Feature", "geometry": {"type": "Point", "coordinates": [-0.854, 52.2511]}, "properties": {"confidence_label": "candidate", "cluster_id": 57, "cells": 1, "max_drive_count": 3, "total_bursts": 3}}, {"type": "Feature", "geometry": {"type": "Point", "coordinates": [-0.8534, 52.2511]}, "properties": {"confidence_label": "candidate", "cluster_id": 58, "cells": 1, "max_drive_count": 4, "total_bursts": 4}}, {"type": "Feature", "geometry": {"type": "Point", "coordinates": [-0.8528333333333333, 52.251200000000004]}, "properties": {"confidence_label": "candidate", "cluster_id": 59, "cells": 3, "max_drive_count": 4, "total_bursts": 11}}, {"type": "Feature", "geometry": {"type": "Point", "coordinates": [-0.8521, 52.2513]}, "properties": {"confidence_label": "candidate", "cluster_id": 60, "cells": 1, "max_drive_count": 6, "total_bursts": 6}}, {"type": "Feature", "geometry": {"type": "Point", "coordinates": [-0.8814, 52.2514]}, "properties": {"confidence_label": "candidate", "cluster_id": 61, "cells": 1, "max_drive_count": 4, "total_bursts": 4}}, {"type": "Feature", "geometry": {"type": "Point", "coordinates": [-0.8695, 52.2515]}, "properties": {"confidence_label": "candidate", "cluster_id": 62, "cells": 3, "max_drive_count": 4, "total_bursts": 10}}, {"type": "Feature", "geometry": {"type": "Point", "coordinates": [-0.85085, 52.2514]}, "properties": {"confidence_label": "candidate", "cluster_id": 63, "cells": 2, "max_drive_count": 3, "total_bursts": 6}}, {"type": "Feature", "geometry": {"type": "Point", "coordinates": [-0.8504, 52.2515]}, "properties": {"confidence_label": "candidate", "cluster_id": 64, "cells": 3, "max_drive_count": 4, "total_bursts": 12}}, {"type": "Feature", "geometry": {"type": "Point", "coordinates": [-0.85, 52.2516]}, "properties": {"confidence_label": "candidate", "cluster_id": 65, "cells": 1, "max_drive_count": 3, "total_bursts": 3}}, {"type": "Feature", "geometry": {"type": "Point", "coordinates": [-0.84935, 52.25175]}, "properties": {"confidence_label": "candidate", "cluster_id": 66, "cells": 2, "max_drive_count": 3, "total_bursts": 6}}, {"type": "Feature", "geometry": {"type": "Point", "coordinates": [-0.8784, 52.2519]}, "properties": {"confidence_label": "candidate", "cluster_id": 67, "cells": 1, "max_drive_count": 3, "total_bursts": 3}}, {"type": "Feature", "geometry": {"type": "Point", "coordinates": [-0.8763, 52.2519]}, "properties": {"confidence_label": "candidate", "cluster_id": 68, "cells": 1, "max_drive_count": 4, "total_bursts": 4}}, {"type": "Feature", "geometry": {"type": "Point", "coordinates": [-0.8483, 52.252]}, "properties": {"confidence_label": "candidate", "cluster_id": 69, "cells": 1, "max_drive_count": 3, "total_bursts": 3}}, {"type": "Feature", "geometry": {"type": "Point", "coordinates": [-0.8466, 52.2524]}, "properties": {"confidence_label": "candidate", "cluster_id": 70, "cells": 3, "max_drive_count": 6, "total_bursts": 13}}, {"type": "Feature", "geometry": {"type": "Point", "coordinates": [-0.8462, 52.2525]}, "properties": {"confidence_label": "candidate", "cluster_id": 71, "cells": 1, "max_drive_count": 3, "total_bursts": 3}}, {"type": "Feature", "geometry": {"type": "Point", "coordinates": [-0.8454, 52.2526]}, "properties": {"confidence_label": "candidate", "cluster_id": 72, "cells": 2, "max_drive_count": 5, "total_bursts": 10}}, {"type": "Feature", "geometry": {"type": "Point", "coordinates": [-0.8445, 52.2528]}, "properties": {"confidence_label": "candidate", "cluster_id": 73, "cells": 1, "max_drive_count": 3, "total_bursts": 3}}, {"type": "Feature", "geometry": {"type": "Point", "coordinates": [-0.87, 52.2529]}, "properties": {"confidence_label": "candidate", "cluster_id": 74, "cells": 1, "max_drive_count": 5, "total_bursts": 5}}, {"type": "Feature", "geometry": {"type": "Point", "coordinates": [-0.8434, 52.2529]}, "properties": {"confidence_label": "candidate", "cluster_id": 75, "cells": 1, "max_drive_count": 3, "total_bursts": 3}}, {"type": "Feature", "geometry": {"type": "Point", "coordinates": [-0.8363, 52.2533]}, "properties": {"confidence_label": "candidate", "cluster_id": 76, "cells": 1, "max_drive_count": 3, "total_bursts": 3}}, {"type": "Feature", "geometry": {"type": "Point", "coordinates": [-0.83545, 52.2533]}, "properties": {"confidence_label": "candidate", "cluster_id": 77, "cells": 2, "max_drive_count": 4, "total_bursts": 7}}, {"type": "Feature", "geometry": {"type": "Point", "coordinates": [-0.8393, 52.2535]}, "properties": {"confidence_label": "candidate", "cluster_id": 78, "cells": 1, "max_drive_count": 3, "total_bursts": 3}}, {"type": "Feature", "geometry": {"type": "Point", "coordinates": [-0.8365, 52.2535]}, "properties": {"confidence_label": "candidate", "cluster_id": 79, "cells": 1, "max_drive_count": 3, "total_bursts": 3}}, {"type": "Feature", "geometry": {"type": "Point", "coordinates": [-0.8725, 52.2536]}, "properties": {"confidence_label": "candidate", "cluster_id": 80, "cells": 1, "max_drive_count": 3, "total_bursts": 3}}, {"type": "Feature", "geometry": {"type": "Point", "coordinates": [-0.8386, 52.2536]}, "properties": {"confidence_label": "candidate", "cluster_id": 81, "cells": 1, "max_drive_count": 3, "total_bursts": 3}}, {"type": "Feature", "geometry": {"type": "Point", "coordinates": [-0.8352, 52.2536]}, "properties": {"confidence_label": "candidate", "cluster_id": 82, "cells": 1, "max_drive_count": 3, "total_bursts": 3}}, {"type": "Feature", "geometry": {"type": "Point", "coordinates": [-0.83815, 52.2537]}, "properties": {"confidence_label": "candidate", "cluster_id": 83, "cells": 2, "max_drive_count": 4, "total_bursts": 9}}, {"type": "Feature", "geometry": {"type": "Point", "coordinates": [-0.87025, 52.2538]}, "properties": {"confidence_label": "candidate", "cluster_id": 84, "cells": 2, "max_drive_count": 3, "total_bursts": 6}}, {"type": "Feature", "geometry": {"type": "Point", "coordinates": [-0.8707, 52.2539]}, "properties": {"confidence_label": "candidate", "cluster_id": 85, "cells": 1, "max_drive_count": 3, "total_bursts": 3}}, {"type": "Feature", "geometry": {"type": "Point", "coordinates": [-0.8703499999999998, 52.25424999999999]}, "properties": {"confidence_label": "candidate", "cluster_id": 86, "cells": 6, "max_drive_count": 4, "total_bursts": 22}}, {"type": "Feature", "geometry": {"type": "Point", "coordinates": [-0.8354, 52.2541]}, "properties": {"confidence_label": "candidate", "cluster_id": 87, "cells": 1, "max_drive_count": 3, "total_bursts": 3}}, {"type": "Feature", "geometry": {"type": "Point", "coordinates": [-0.8734, 52.2542]}, "properties": {"confidence_label": "candidate", "cluster_id": 88, "cells": 1, "max_drive_count": 3, "total_bursts": 4}}, {"type": "Feature", "geometry": {"type": "Point", "coordinates": [-0.8364, 52.2542]}, "properties": {"confidence_label": "candidate", "cluster_id": 89, "cells": 1, "max_drive_count": 3, "total_bursts": 3}}, {"type": "Feature", "geometry": {"type": "Point", "coordinates": [-0.8361, 52.2543]}, "properties": {"confidence_label": "candidate", "cluster_id": 90, "cells": 1, "max_drive_count": 3, "total_bursts": 3}}, {"type": "Feature", "geometry": {"type": "Point", "coordinates": [-0.8649, 52.2544]}, "properties": {"confidence_label": "candidate", "cluster_id": 91, "cells": 1, "max_drive_count": 3, "total_bursts": 3}}, {"type": "Feature", "geometry": {"type": "Point", "coordinates": [-0.8353, 52.2545]}, "properties": {"confidence_label": "candidate", "cluster_id": 92, "cells": 1, "max_drive_count": 3, "total_bursts": 3}}, {"type": "Feature", "geometry": {"type": "Point", "coordinates": [-0.87045, 52.25475]}, "properties": {"confidence_label": "candidate", "cluster_id": 93, "cells": 2, "max_drive_count": 3, "total_bursts": 6}}, {"type": "Feature", "geometry": {"type": "Point", "coordinates": [-0.8631, 52.2547]}, "properties": {"confidence_label": "candidate", "cluster_id": 94, "cells": 1, "max_drive_count": 3, "total_bursts": 3}}, {"type": "Feature", "geometry": {"type": "Point", "coordinates": [-0.835, 52.2548]}, "properties": {"confidence_label": "candidate", "cluster_id": 95, "cells": 1, "max_drive_count": 3, "total_bursts": 3}}, {"type": "Feature", "geometry": {"type": "Point", "coordinates": [-0.8724, 52.255]}, "properties": {"confidence_label": "candidate", "cluster_id": 96, "cells": 1, "max_drive_count": 3, "total_bursts": 3}}, {"type": "Feature", "geometry": {"type": "Point", "coordinates": [-0.8705, 52.255]}, "properties": {"confidence_label": "candidate", "cluster_id": 97, "cells": 1, "max_drive_count": 3, "total_bursts": 3}}, {"type": "Feature", "geometry": {"type": "Point", "coordinates": [-0.8615, 52.2551]}, "properties": {"confidence_label": "candidate", "cluster_id": 98, "cells": 1, "max_drive_count": 4, "total_bursts": 4}}, {"type": "Feature", "geometry": {"type": "Point", "coordinates": [-0.8603, 52.2553]}, "properties": {"confidence_label": "candidate", "cluster_id": 99, "cells": 1, "max_drive_count": 4, "total_bursts": 4}}, {"type": "Feature", "geometry": {"type": "Point", "coordinates": [-0.8356, 52.2554]}, "properties": {"confidence_label": "candidate", "cluster_id": 100, "cells": 1, "max_drive_count": 5, "total_bursts": 7}}, {"type": "Feature", "geometry": {"type": "Point", "coordinates": [-0.8718, 52.2555]}, "properties": {"confidence_label": "candidate", "cluster_id": 101, "cells": 1, "max_drive_count": 3, "total_bursts": 3}}, {"type": "Feature", "geometry": {"type": "Point", "coordinates": [-0.8593, 52.2555]}, "properties": {"confidence_label": "candidate", "cluster_id": 102, "cells": 1, "max_drive_count": 3, "total_bursts": 3}}, {"type": "Feature", "geometry": {"type": "Point", "coordinates": [-0.8588, 52.2556]}, "properties": {"confidence_label": "candidate", "cluster_id": 103, "cells": 1, "max_drive_count": 3, "total_bursts": 3}}, {"type": "Feature", "geometry": {"type": "Point", "coordinates": [-0.8707333333333334, 52.255766666666666]}, "properties": {"confidence_label": "candidate", "cluster_id": 104, "cells": 3, "max_drive_count": 6, "total_bursts": 13}}, {"type": "Feature", "geometry": {"type": "Point", "coordinates": [-0.8585, 52.2557]}, "properties": {"confidence_label": "candidate", "cluster_id": 105, "cells": 1, "max_drive_count": 3, "total_bursts": 3}}, {"type": "Feature", "geometry": {"type": "Point", "coordinates": [-0.8713, 52.2559]}, "properties": {"confidence_label": "candidate", "cluster_id": 106, "cells": 1, "max_drive_count": 3, "total_bursts": 3}}, {"type": "Feature", "geometry": {"type": "Point", "coordinates": [-0.8575, 52.2559]}, "properties": {"confidence_label": "candidate", "cluster_id": 107, "cells": 1, "max_drive_count": 3, "total_bursts": 3}}, {"type": "Feature", "geometry": {"type": "Point", "coordinates": [-0.8361, 52.2559]}, "properties": {"confidence_label": "candidate", "cluster_id": 108, "cells": 1, "max_drive_count": 4, "total_bursts": 4}}, {"type": "Feature", "geometry": {"type": "Point", "coordinates": [-0.8708, 52.25605]}, "properties": {"confidence_label": "candidate", "cluster_id": 109, "cells": 2, "max_drive_count": 7, "total_bursts": 12}}, {"type": "Feature", "geometry": {"type": "Point", "coordinates": [-0.8565, 52.2561]}, "properties": {"confidence_label": "candidate", "cluster_id": 110, "cells": 1, "max_drive_count": 3, "total_bursts": 3}}, {"type": "Feature", "geometry": {"type": "Point", "coordinates": [-0.8362, 52.2561]}, "properties": {"confidence_label": "candidate", "cluster_id": 111, "cells": 1, "max_drive_count": 4, "total_bursts": 4}}, {"type": "Feature", "geometry": {"type": "Point", "coordinates": [-0.8709, 52.25645]}, "properties": {"confidence_label": "candidate", "cluster_id": 112, "cells": 2, "max_drive_count": 4, "total_bursts": 7}}, {"type": "Feature", "geometry": {"type": "Point", "coordinates": [-0.871, 52.2571]}, "properties": {"confidence_label": "candidate", "cluster_id": 113, "cells": 1, "max_drive_count": 5, "total_bursts": 5}}, {"type": "Feature", "geometry": {"type": "Point", "coordinates": [-0.8373, 52.2571]}, "properties": {"confidence_label": "candidate", "cluster_id": 114, "cells": 1, "max_drive_count": 4, "total_bursts": 4}}, {"type": "Feature", "geometry": {"type": "Point", "coordinates": [-0.8376, 52.2572]}, "properties": {"confidence_label": "candidate", "cluster_id": 115, "cells": 1, "max_drive_count": 4, "total_bursts": 4}}, {"type": "Feature", "geometry": {"type": "Point", "coordinates": [-0.871, 52.2573]}, "properties": {"confidence_label": "candidate", "cluster_id": 116, "cells": 1, "max_drive_count": 4, "total_bursts": 4}}, {"type": "Feature", "geometry": {"type": "Point", "coordinates": [-0.8561, 52.2573]}, "properties": {"confidence_label": "candidate", "cluster_id": 117, "cells": 1, "max_drive_count": 3, "total_bursts": 3}}, {"type": "Feature", "geometry": {"type": "Point", "coordinates": [-0.838, 52.2573]}, "properties": {"confidence_label": "candidate", "cluster_id": 118, "cells": 1, "max_drive_count": 3, "total_bursts": 3}}, {"type": "Feature", "geometry": {"type": "Point", "coordinates": [-0.8707, 52.2574]}, "properties": {"confidence_label": "candidate", "cluster_id": 119, "cells": 1, "max_drive_count": 4, "total_bursts": 4}}, {"type": "Feature", "geometry": {"type": "Point", "coordinates": [-0.8383, 52.2574]}, "properties": {"confidence_label": "candidate", "cluster_id": 120, "cells": 1, "max_drive_count": 4, "total_bursts": 4}}, {"type": "Feature", "geometry": {"type": "Point", "coordinates": [-0.8694999999999999, 52.25765]}, "properties": {"confidence_label": "candidate", "cluster_id": 121, "cells": 2, "max_drive_count": 4, "total_bursts": 7}}, {"type": "Feature", "geometry": {"type": "Point", "coordinates": [-0.8391, 52.2581]}, "properties": {"confidence_label": "candidate", "cluster_id": 122, "cells": 1, "max_drive_count": 4, "total_bursts": 4}}, {"type": "Feature", "geometry": {"type": "Point", "coordinates": [-0.8654, 52.2584]}, "properties": {"confidence_label": "candidate", "cluster_id": 123, "cells": 1, "max_drive_count": 3, "total_bursts": 3}}, {"type": "Feature", "geometry": {"type": "Point", "coordinates": [-0.8631, 52.2589]}, "properties": {"confidence_label": "candidate", "cluster_id": 124, "cells": 1, "max_drive_count": 3, "total_bursts": 3}}, {"type": "Feature", "geometry": {"type": "Point", "coordinates": [-0.8626, 52.2591]}, "properties": {"confidence_label": "candidate", "cluster_id": 125, "cells": 1, "max_drive_count": 3, "total_bursts": 3}}, {"type": "Feature", "geometry": {"type": "Point", "coordinates": [-0.8548, 52.2591]}, "properties": {"confidence_label": "candidate", "cluster_id": 126, "cells": 1, "max_drive_count": 4, "total_bursts": 4}}, {"type": "Feature", "geometry": {"type": "Point", "coordinates": [-0.8605, 52.2597]}, "properties": {"confidence_label": "candidate", "cluster_id": 127, "cells": 1, "max_drive_count": 3, "total_bursts": 3}}, {"type": "Feature", "geometry": {"type": "Point", "coordinates": [-0.8597, 52.26]}, "properties": {"confidence_label": "candidate", "cluster_id": 128, "cells": 1, "max_drive_count": 3, "total_bursts": 3}}, {"type": "Feature", "geometry": {"type": "Point", "coordinates": [-0.8522, 52.26025]}, "properties": {"confidence_label": "candidate", "cluster_id": 129, "cells": 2, "max_drive_count": 3, "total_bursts": 8}}, {"type": "Feature", "geometry": {"type": "Point", "coordinates": [-0.8523499999999999, 52.260549999999995]}, "properties": {"confidence_label": "candidate", "cluster_id": 130, "cells": 2, "max_drive_count": 4, "total_bursts": 9}}, {"type": "Feature", "geometry": {"type": "Point", "coordinates": [-0.8405, 52.2605]}, "properties": {"confidence_label": "candidate", "cluster_id": 131, "cells": 1, "max_drive_count": 3, "total_bursts": 3}}, {"type": "Feature", "geometry": {"type": "Point", "coordinates": [-0.8577, 52.2606]}, "properties": {"confidence_label": "candidate", "cluster_id": 132, "cells": 1, "max_drive_count": 3, "total_bursts": 3}}, {"type": "Feature", "geometry": {"type": "Point", "coordinates": [-0.84886, 52.26082]}, "properties": {"confidence_label": "candidate", "cluster_id": 133, "cells": 5, "max_drive_count": 4, "total_bursts": 19}}, {"type": "Feature", "geometry": {"type": "Point", "coordinates": [-0.8572, 52.2608]}, "properties": {"confidence_label": "candidate", "cluster_id": 134, "cells": 1, "max_drive_count": 3, "total_bursts": 3}}, {"type": "Feature", "geometry": {"type": "Point", "coordinates": [-0.8526428571428573, 52.261]}, "properties": {"confidence_label": "candidate", "cluster_id": 135, "cells": 7, "max_drive_count": 4, "total_bursts": 32}}, {"type": "Feature", "geometry": {"type": "Point", "coordinates": [-0.857, 52.2611]}, "properties": {"confidence_label": "candidate", "cluster_id": 136, "cells": 1, "max_drive_count": 3, "total_bursts": 3}}, {"type": "Feature", "geometry": {"type": "Point", "coordinates": [-0.8409, 52.2613]}, "properties": {"confidence_label": "candidate", "cluster_id": 137, "cells": 1, "max_drive_count": 4, "total_bursts": 4}}, {"type": "Feature", "geometry": {"type": "Point", "coordinates": [-0.8563333333333333, 52.2614]}, "properties": {"confidence_label": "candidate", "cluster_id": 138, "cells": 3, "max_drive_count": 3, "total_bursts": 9}}, {"type": "Feature", "geometry": {"type": "Point", "coordinates": [-0.8557, 52.2614]}, "properties": {"confidence_label": "candidate", "cluster_id": 139, "cells": 1, "max_drive_count": 3, "total_bursts": 3}}, {"type": "Feature", "geometry": {"type": "Point", "coordinates": [-0.8552, 52.2614]}, "properties": {"confidence_label": "candidate", "cluster_id": 140, "cells": 2, "max_drive_count": 3, "total_bursts": 6}}, {"type": "Feature", "geometry": {"type": "Point", "coordinates": [-0.854375, 52.261475]}, "properties": {"confidence_label": "candidate", "cluster_id": 141, "cells": 4, "max_drive_count": 3, "total_bursts": 12}}, {"type": "Feature", "geometry": {"type": "Point", "coordinates": [-0.8529, 52.2614]}, "properties": {"confidence_label": "candidate", "cluster_id": 142, "cells": 1, "max_drive_count": 4, "total_bursts": 6}}, {"type": "Feature", "geometry": {"type": "Point", "coordinates": [-0.85375, 52.26165]}, "properties": {"confidence_label": "candidate", "cluster_id": 143, "cells": 2, "max_drive_count": 3, "total_bursts": 6}}, {"type": "Feature", "geometry": {"type": "Point", "coordinates": [-0.8533, 52.26175]}, "properties": {"confidence_label": "candidate", "cluster_id": 144, "cells": 4, "max_drive_count": 4, "total_bursts": 19}}, {"type": "Feature", "geometry": {"type": "Point", "coordinates": [-0.8527999999999999, 52.2623]}, "properties": {"confidence_label": "candidate", "cluster_id": 145, "cells": 3, "max_drive_count": 4, "total_bursts": 13}}, {"type": "Feature", "geometry": {"type": "Point", "coordinates": [-0.8497, 52.2622]}, "properties": {"confidence_label": "candidate", "cluster_id": 146, "cells": 1, "max_drive_count": 3, "total_bursts": 3}}, {"type": "Feature", "geometry": {"type": "Point", "coordinates": [-0.8523, 52.2629]}, "properties": {"confidence_label": "candidate", "cluster_id": 147, "cells": 1, "max_drive_count": 3, "total_bursts": 3}}, {"type": "Feature", "geometry": {"type": "Point", "coordinates": [-0.8501, 52.2629]}, "properties": {"confidence_label": "candidate", "cluster_id": 148, "cells": 1, "max_drive_count": 3, "total_bursts": 3}}, {"type": "Feature", "geometry": {"type": "Point", "coordinates": [-0.8502, 52.2631]}, "properties": {"confidence_label": "candidate", "cluster_id": 149, "cells": 1, "max_drive_count": 4, "total_bursts": 4}}, {"type": "Feature", "geometry": {"type": "Point", "coordinates": [-0.8421, 52.2634]}, "properties": {"confidence_label": "candidate", "cluster_id": 150, "cells": 1, "max_drive_count": 3, "total_bursts": 3}}, {"type": "Feature", "geometry": {"type": "Point", "coordinates": [-0.8514, 52.2635]}, "properties": {"confidence_label": "candidate", "cluster_id": 151, "cells": 1, "max_drive_count": 3, "total_bursts": 3}}, {"type": "Feature", "geometry": {"type": "Point", "coordinates": [-0.8508, 52.2637]}, "properties": {"confidence_label": "candidate", "cluster_id": 152, "cells": 1, "max_drive_count": 3, "total_bursts": 3}}, {"type": "Feature", "geometry": {"type": "Point", "coordinates": [-0.8504, 52.2637]}, "properties": {"confidence_label": "candidate", "cluster_id": 153, "cells": 1, "max_drive_count": 3, "total_bursts": 3}}, {"type": "Feature", "geometry": {"type": "Point", "coordinates": [-0.8423, 52.2637]}, "properties": {"confidence_label": "candidate", "cluster_id": 154, "cells": 1, "max_drive_count": 4, "total_bursts": 4}}, {"type": "Feature", "geometry": {"type": "Point", "coordinates": [-0.8427, 52.26428]}, "properties": {"confidence_label": "candidate", "cluster_id": 155, "cells": 5, "max_drive_count": 5, "total_bursts": 18}}, {"type": "Feature", "geometry": {"type": "Point", "coordinates": [-0.84315, 52.26465]}, "properties": {"confidence_label": "candidate", "cluster_id": 156, "cells": 2, "max_drive_count": 4, "total_bursts": 9}}, {"type": "Feature", "geometry": {"type": "Point", "coordinates": [-0.842725, 52.26475]}, "properties": {"confidence_label": "candidate", "cluster_id": 157, "cells": 4, "max_drive_count": 5, "total_bursts": 16}}, {"type": "Feature", "geometry": {"type": "Point", "coordinates": [-0.843, 52.2651]}, "properties": {"confidence_label": "candidate", "cluster_id": 158, "cells": 1, "max_drive_count": 3, "total_bursts": 3}}, {"type": "Feature", "geometry": {"type": "Point", "coordinates": [-0.8438, 52.2682]}, "properties": {"confidence_label": "candidate", "cluster_id": 159, "cells": 1, "max_drive_count": 3, "total_bursts": 3}}, {"type": "Feature", "geometry": {"type": "Point", "coordinates": [-0.8443, 52.2703]}, "properties": {"confidence_label": "candidate", "cluster_id": 160, "cells": 1, "max_drive_count": 4, "total_bursts": 4}}, {"type": "Feature", "geometry": {"type": "Point", "coordinates": [-0.8447, 52.2707]}, "properties": {"confidence_label": "candidate", "cluster_id": 161, "cells": 1, "max_drive_count": 3, "total_bursts": 3}}, {"type": "Feature", "geometry": {"type": "Point", "coordinates": [-0.8453, 52.2718]}, "properties": {"confidence_label": "candidate", "cluster_id": 162, "cells": 1, "max_drive_count": 4, "total_bursts": 4}}, {"type": "Feature", "geometry": {"type": "Point", "coordinates": [-0.8462, 52.2727]}, "properties": {"confidence_label": "candidate", "cluster_id": 163, "cells": 1, "max_drive_count": 4, "total_bursts": 4}}, {"type": "Feature", "geometry": {"type": "Point", "coordinates": [-0.8463, 52.2731]}, "properties": {"confidence_label": "candidate", "cluster_id": 164, "cells": 1, "max_drive_count": 4, "total_bursts": 4}}, {"type": "Feature", "geometry": {"type": "Point", "coordinates": [-0.84615, 52.27505]}, "properties": {"confidence_label": "candidate", "cluster_id": 165, "cells": 2, "max_drive_count": 4, "total_bursts": 7}}, {"type": "Feature", "geometry": {"type": "Point", "coordinates": [-0.8462, 52.2753]}, "properties": {"confidence_label": "candidate", "cluster_id": 166, "cells": 1, "max_drive_count": 3, "total_bursts": 3}}, {"type": "Feature", "geometry": {"type": "Point", "coordinates": [-0.8456, 52.2757]}, "properties": {"confidence_label": "candidate", "cluster_id": 167, "cells": 1, "max_drive_count": 4, "total_bursts": 4}}, {"type": "Feature", "geometry": {"type": "Point", "coordinates": [-0.84615, 52.2758]}, "properties": {"confidence_label": "candidate", "cluster_id": 168, "cells": 2, "max_drive_count": 3, "total_bursts": 6}}, {"type": "Feature", "geometry": {"type": "Point", "coordinates": [-0.8448, 52.27595]}, "properties": {"confidence_label": "candidate", "cluster_id": 169, "cells": 2, "max_drive_count": 3, "total_bursts": 6}}, {"type": "Feature", "geometry": {"type": "Point", "coordinates": [-0.8445750000000001, 52.276624999999996]}, "properties": {"confidence_label": "candidate", "cluster_id": 170, "cells": 4, "max_drive_count": 3, "total_bursts": 12}}, {"type": "Feature", "geometry": {"type": "Point", "coordinates": [-0.8452, 52.2771]}, "properties": {"confidence_label": "candidate", "cluster_id": 171, "cells": 1, "max_drive_count": 3, "total_bursts": 3}}, {"type": "Feature", "geometry": {"type": "Point", "coordinates": [-0.8456, 52.2773]}, "properties": {"confidence_label": "candidate", "cluster_id": 172, "cells": 1, "max_drive_count": 4, "total_bursts": 4}}, {"type": "Feature", "geometry": {"type": "Point", "coordinates": [-0.8454, 52.2777]}, "properties": {"confidence_label": "candidate", "cluster_id": 173, "cells": 1, "max_drive_count": 3, "total_bursts": 3}}, {"type": "Feature", "geometry": {"type": "Point", "coordinates": [-0.8422, 52.28385]}, "properties": {"confidence_label": "candidate", "cluster_id": 174, "cells": 2, "max_drive_count": 3, "total_bursts": 7}}, {"type": "Feature", "geometry": {"type": "Point", "coordinates": [-0.8416, 52.2846]}, "properties": {"confidence_label": "candidate", "cluster_id": 175, "cells": 1, "max_drive_count": 3, "total_bursts": 3}}, {"type": "Feature", "geometry": {"type": "Point", "coordinates": [-0.8398, 52.2872]}, "properties": {"confidence_label": "candidate", "cluster_id": 176, "cells": 1, "max_drive_count": 3, "total_bursts": 3}}, {"type": "Feature", "geometry": {"type": "Point", "coordinates": [-0.8394, 52.2876]}, "properties": {"confidence_label": "candidate", "cluster_id": 177, "cells": 1, "max_drive_count": 3, "total_bursts": 3}}, {"type": "Feature", "geometry": {"type": "Point", "coordinates": [-0.8382, 52.288700000000006]}, "properties": {"confidence_label": "candidate", "cluster_id": 178, "cells": 3, "max_drive_count": 4, "total_bursts": 10}}, {"type": "Feature", "geometry": {"type": "Point", "coordinates": [-0.8363, 52.289]}, "properties": {"confidence_label": "candidate", "cluster_id": 179, "cells": 1, "max_drive_count": 3, "total_bursts": 4}}, {"type": "Feature", "geometry": {"type": "Point", "coordinates": [-0.8373, 52.2892]}, "properties": {"confidence_label": "candidate", "cluster_id": 180, "cells": 1, "max_drive_count": 4, "total_bursts": 4}}, {"type": "Feature", "geometry": {"type": "Point", "coordinates": [-0.8363, 52.2892]}, "properties": {"confidence_label": "candidate", "cluster_id": 181, "cells": 1, "max_drive_count": 3, "total_bursts": 3}}, {"type": "Feature", "geometry": {"type": "Point", "coordinates": [-1.3111, 53.3145]}, "properties": {"confidence_label": "candidate", "cluster_id": 182, "cells": 1, "max_drive_count": 3, "total_bursts": 3}}, {"type": "Feature", "geometry": {"type": "Point", "coordinates": [-1.3186, 53.3251]}, "properties": {"confidence_label": "candidate", "cluster_id": 183, "cells": 1, "max_drive_count": 3, "total_bursts": 3}}, {"type": "Feature", "geometry": {"type": "Point", "coordinates": [-1.3635, 53.3265]}, "properties": {"confidence_label": "candidate", "cluster_id": 184, "cells": 1, "max_drive_count": 4, "total_bursts": 4}}, {"type": "Feature", "geometry": {"type": "Point", "coordinates": [-1.3564, 53.327]}, "properties": {"confidence_label": "candidate", "cluster_id": 185, "cells": 1, "max_drive_count": 3, "total_bursts": 3}}, {"type": "Feature", "geometry": {"type": "Point", "coordinates": [-1.3447, 53.3279]}, "properties": {"confidence_label": "candidate", "cluster_id": 186, "cells": 1, "max_drive_count": 4, "total_bursts": 4}}, {"type": "Feature", "geometry": {"type": "Point", "coordinates": [-1.34505, 53.328]}, "properties": {"confidence_label": "candidate", "cluster_id": 187, "cells": 2, "max_drive_count": 5, "total_bursts": 9}}, {"type": "Feature", "geometry": {"type": "Point", "coordinates": [-1.3811, 53.335]}, "properties": {"confidence_label": "candidate", "cluster_id": 188, "cells": 1, "max_drive_count": 4, "total_bursts": 4}}, {"type": "Feature", "geometry": {"type": "Point", "coordinates": [-1.38985, 53.341049999999996]}, "properties": {"confidence_label": "candidate", "cluster_id": 189, "cells": 2, "max_drive_count": 5, "total_bursts": 8}}, {"type": "Feature", "geometry": {"type": "Point", "coordinates": [-1.3573, 53.3496]}, "properties": {"confidence_label": "candidate", "cluster_id": 190, "cells": 1, "max_drive_count": 4, "total_bursts": 5}}, {"type": "Feature", "geometry": {"type": "Point", "coordinates": [-1.4044500000000002, 53.35155]}, "properties": {"confidence_label": "candidate", "cluster_id": 191, "cells": 2, "max_drive_count": 4, "total_bursts": 8}}, {"type": "Feature", "geometry": {"type": "Point", "coordinates": [-1.3486500000000001, 53.35335]}, "properties": {"confidence_label": "candidate", "cluster_id": 192, "cells": 2, "max_drive_count": 3, "total_bursts": 6}}, {"type": "Feature", "geometry": {"type": "Point", "coordinates": [-1.3038, 53.3533]}, "properties": {"confidence_label": "candidate", "cluster_id": 193, "cells": 1, "max_drive_count": 3, "total_bursts": 3}}, {"type": "Feature", "geometry": {"type": "Point", "coordinates": [-1.3287, 53.354749999999996]}, "properties": {"confidence_label": "candidate", "cluster_id": 194, "cells": 2, "max_drive_count": 4, "total_bursts": 7}}, {"type": "Feature", "geometry": {"type": "Point", "coordinates": [-1.3888, 53.3559]}, "properties": {"confidence_label": "candidate", "cluster_id": 195, "cells": 1, "max_drive_count": 3, "total_bursts": 3}}, {"type": "Feature", "geometry": {"type": "Point", "coordinates": [-1.326, 53.3574]}, "properties": {"confidence_label": "candidate", "cluster_id": 196, "cells": 1, "max_drive_count": 3, "total_bursts": 3}}, {"type": "Feature", "geometry": {"type": "Point", "coordinates": [-1.4183, 53.3579]}, "properties": {"confidence_label": "candidate", "cluster_id": 197, "cells": 1, "max_drive_count": 3, "total_bursts": 3}}, {"type": "Feature", "geometry": {"type": "Point", "coordinates": [-1.4211, 53.3589]}, "properties": {"confidence_label": "candidate", "cluster_id": 198, "cells": 1, "max_drive_count": 3, "total_bursts": 3}}, {"type": "Feature", "geometry": {"type": "Point", "coordinates": [-1.4316, 53.3627]}, "properties": {"confidence_label": "candidate", "cluster_id": 199, "cells": 1, "max_drive_count": 3, "total_bursts": 3}}, {"type": "Feature", "geometry": {"type": "Point", "coordinates": [-1.4348, 53.3647]}, "properties": {"confidence_label": "candidate", "cluster_id": 200, "cells": 1, "max_drive_count": 3, "total_bursts": 3}}, {"type": "Feature", "geometry": {"type": "Point", "coordinates": [-1.4548, 53.3794]}, "properties": {"confidence_label": "candidate", "cluster_id": 201, "cells": 1, "max_drive_count": 3, "total_bursts": 3}}, {"type": "Feature", "geometry": {"type": "Point", "coordinates": [-1.4548, 53.3797]}, "properties": {"confidence_label": "candidate", "cluster_id": 202, "cells": 1, "max_drive_count": 5, "total_bursts": 5}}, {"type": "Feature", "geometry": {"type": "Point", "coordinates": [-1.4548, 53.3799]}, "properties": {"confidence_label": "candidate", "cluster_id": 203, "cells": 1, "max_drive_count": 7, "total_bursts": 7}}, {"type": "Feature", "geometry": {"type": "Point", "coordinates": [-1.4553, 53.38075]}, "properties": {"confidence_label": "candidate", "cluster_id": 204, "cells": 2, "max_drive_count": 3, "total_bursts": 6}}, {"type": "Feature", "geometry": {"type": "Point", "coordinates": [-1.4549, 53.3808]}, "properties": {"confidence_label": "candidate", "cluster_id": 205, "cells": 1, "max_drive_count": 3, "total_bursts": 3}}, {"type": "Feature", "geometry": {"type": "Point", "coordinates": [-1.4362, 53.3817]}, "properties": {"confidence_label": "candidate", "cluster_id": 206, "cells": 1, "max_drive_count": 3, "total_bursts": 3}}, {"type": "Feature", "geometry": {"type": "Point", "coordinates": [-1.2795, 54.5311]}, "properties": {"confidence_label": "candidate", "cluster_id": 207, "cells": 1, "max_drive_count": 3, "total_bursts": 3}}, {"type": "Feature", "geometry": {"type": "Point", "coordinates": [-1.3628, 54.7377]}, "properties": {"confidence_label": "candidate", "cluster_id": 208, "cells": 1, "max_drive_count": 3, "total_bursts": 3}}, {"type": "Feature", "geometry": {"type": "Point", "coordinates": [-1.4536, 54.7464]}, "properties": {"confidence_label": "candidate", "cluster_id": 209, "cells": 1, "max_drive_count": 3, "total_bursts": 3}}, {"type": "Feature", "geometry": {"type": "Point", "coordinates": [-1.5052, 54.7628]}, "properties": {"confidence_label": "candidate", "cluster_id": 210, "cells": 1, "max_drive_count": 3, "total_bursts": 3}}, {"type": "Feature", "geometry": {"type": "Point", "coordinates": [-1.5345, 54.7745]}, "properties": {"confidence_label": "candidate", "cluster_id": 211, "cells": 1, "max_drive_count": 4, "total_bursts": 4}}, {"type": "Feature", "geometry": {"type": "Point", "coordinates": [-1.5349, 54.77465]}, "properties": {"confidence_label": "candidate", "cluster_id": 212, "cells": 2, "max_drive_count": 4, "total_bursts": 7}}, {"type": "Feature", "geometry": {"type": "Point", "coordinates": [-1.5353, 54.7768]}, "properties": {"confidence_label": "candidate", "cluster_id": 213, "cells": 1, "max_drive_count": 3, "total_bursts": 5}}, {"type": "Feature", "geometry": {"type": "Point", "coordinates": [-1.5399, 54.7778]}, "properties": {"confidence_label": "candidate", "cluster_id": 214, "cells": 1, "max_drive_count": 4, "total_bursts": 4}}, {"type": "Feature", "geometry": {"type": "Point", "coordinates": [-1.5776, 54.7779]}, "properties": {"confidence_label": "candidate", "cluster_id": 215, "cells": 1, "max_drive_count": 3, "total_bursts": 3}}, {"type": "Feature", "geometry": {"type": "Point", "coordinates": [-1.5414, 54.7779]}, "properties": {"confidence_label": "candidate", "cluster_id": 216, "cells": 1, "max_drive_count": 3, "total_bursts": 3}}, {"type": "Feature", "geometry": {"type": "Point", "coordinates": [-1.5793, 54.778]}, "properties": {"confidence_label": "candidate", "cluster_id": 217, "cells": 1, "max_drive_count": 3, "total_bursts": 3}}, {"type": "Feature", "geometry": {"type": "Point", "coordinates": [-1.5788, 54.7781]}, "properties": {"confidence_label": "candidate", "cluster_id": 218, "cells": 1, "max_drive_count": 3, "total_bursts": 3}}, {"type": "Feature", "geometry": {"type": "Point", "coordinates": [-1.5818, 54.7811]}, "properties": {"confidence_label": "candidate", "cluster_id": 219, "cells": 1, "max_drive_count": 3, "total_bursts": 3}}, {"type": "Feature", "geometry": {"type": "Point", "coordinates": [-1.5863, 54.785]}, "properties": {"confidence_label": "candidate", "cluster_id": 220, "cells": 1, "max_drive_count": 3, "total_bursts": 3}}, {"type": "Feature", "geometry": {"type": "Point", "coordinates": [-1.52135, 54.7851]}, "properties": {"confidence_label": "candidate", "cluster_id": 221, "cells": 2, "max_drive_count": 3, "total_bursts": 7}}, {"type": "Feature", "geometry": {"type": "Point", "coordinates": [-1.5359, 54.785325]}, "properties": {"confidence_label": "candidate", "cluster_id": 222, "cells": 4, "max_drive_count": 3, "total_bursts": 15}}, {"type": "Feature", "geometry": {"type": "Point", "coordinates": [-1.5204, 54.7858]}, "properties": {"confidence_label": "candidate", "cluster_id": 223, "cells": 1, "max_drive_count": 3, "total_bursts": 3}}, {"type": "Feature", "geometry": {"type": "Point", "coordinates": [-1.5201, 54.78595]}, "properties": {"confidence_label": "candidate", "cluster_id": 224, "cells": 2, "max_drive_count": 5, "total_bursts": 10}}, {"type": "Feature", "geometry": {"type": "Point", "coordinates": [-1.5285, 54.7862]}, "properties": {"confidence_label": "candidate", "cluster_id": 225, "cells": 1, "max_drive_count": 4, "total_bursts": 4}}, {"type": "Feature", "geometry": {"type": "Point", "coordinates": [-1.52615, 54.78675]}, "properties": {"confidence_label": "candidate", "cluster_id": 226, "cells": 2, "max_drive_count": 4, "total_bursts": 7}}, {"type": "Feature", "geometry": {"type": "Point", "coordinates": [-1.5216, 54.787925]}, "properties": {"confidence_label": "candidate", "cluster_id": 227, "cells": 4, "max_drive_count": 5, "total_bursts": 18}}, {"type": "Feature", "geometry": {"type": "Point", "coordinates": [-1.5469, 54.7881]}, "properties": {"confidence_label": "candidate", "cluster_id": 228, "cells": 1, "max_drive_count": 3, "total_bursts": 3}}, {"type": "Feature", "geometry": {"type": "Point", "coordinates": [-1.5472, 54.7885]}, "properties": {"confidence_label": "candidate", "cluster_id": 229, "cells": 1, "max_drive_count": 3, "total_bursts": 3}}, {"type": "Feature", "geometry": {"type": "Point", "coordinates": [-1.548, 54.7892]}, "properties": {"confidence_label": "candidate", "cluster_id": 230, "cells": 1, "max_drive_count": 3, "total_bursts": 3}}]}