{"type": "FeatureCollection", "features": [{"type": "Feature", "geometry": {"type": "Point", "coordinates": [-0.8623, 52.2412]}, "properties": {"confidence_label": "confirmed", "cluster_id": 0, "cells": 1, "max_drive_count": 9, "total_bursts": 10, "severity_score": 54.3, "severity_band": "strong defect", "severity_colour": "#FB8C00"}}, {"type": "Feature", "geometry": {"type": "Point", "coordinates": [-0.8626, 52.2416]}, "properties": {"confidence_label": "confirmed", "cluster_id": 1, "cells": 1, "max_drive_count": 8, "total_bursts": 8, "severity_score": 51.0, "severity_band": "strong defect", "severity_colour": "#FB8C00"}}, {"type": "Feature", "geometry": {"type": "Point", "coordinates": [-0.863, 52.2421]}, "properties": {"confidence_label": "confirmed", "cluster_id": 2, "cells": 1, "max_drive_count": 7, "total_bursts": 7, "severity_score": 27.9, "severity_band": "minor roughness", "severity_colour": "#FFD54F"}}, {"type": "Feature", "geometry": {"type": "Point", "coordinates": [-0.8632333333333332, 52.24236666666667]}, "properties": {"confidence_label": "confirmed", "cluster_id": 3, "cells": 3, "max_drive_count": 10, "total_bursts": 29, "severity_score": 89.3, "severity_band": "severe pothole", "severity_colour": "#E53935"}}, {"type": "Feature", "geometry": {"type": "Point", "coordinates": [-0.8636333333333334, 52.24296666666667]}, "properties": {"confidence_label": "confirmed", "cluster_id": 4, "cells": 9, "max_drive_count": 17, "total_bursts": 90, "severity_score": 100.0, "severity_band": "severe pothole", "severity_colour": "#E53935"}}, {"type": "Feature", "geometry": {"type": "Point", "coordinates": [-0.8594, 52.2446]}, "properties": {"confidence_label": "confirmed", "cluster_id": 5, "cells": 1, "max_drive_count": 6, "total_bursts": 7, "severity_score": 41.4, "severity_band": "minor roughness", "severity_colour": "#FFD54F"}}, {"type": "Feature", "geometry": {"type": "Point", "coordinates": [-0.8646, 52.2451]}, "properties": {"confidence_label": "confirmed", "cluster_id": 6, "cells": 1, "max_drive_count": 6, "total_bursts": 6, "severity_score": 30.7, "severity_band": "minor roughness", "severity_colour": "#FFD54F"}}, {"type": "Feature", "geometry": {"type": "Point", "coordinates": [-0.8647, 52.2454]}, "properties": {"confidence_label": "confirmed", "cluster_id": 7, "cells": 1, "max_drive_count": 6, "total_bursts": 6, "severity_score": 17.1, "severity_band": "minor roughness", "severity_colour": "#FFD54F"}}, {"type": "Feature", "geometry": {"type": "Point", "coordinates": [-0.8651, 52.2462]}, "properties": {"confidence_label": "confirmed", "cluster_id": 8, "cells": 1, "max_drive_count": 6, "total_bursts": 6, "severity_score": 27.5, "severity_band": "minor roughness", "severity_colour": "#FFD54F"}}, {"type": "Feature", "geometry": {"type": "Point", "coordinates": [-0.8658, 52.2471]}, "properties": {"confidence_label": "confirmed", "cluster_id": 9, "cells": 1, "max_drive_count": 6, "total_bursts": 6, "severity_score": 17.1, "severity_band": "minor roughness", "severity_colour": "#FFD54F"}}, {"type": "Feature", "geometry": {"type": "Point", "coordinates": [-0.8563, 52.2484]}, "properties": {"confidence_label": "confirmed", "cluster_id": 10, "cells": 1, "max_drive_count": 6, "total_bursts": 6, "severity_score": 17.1, "severity_band": "minor roughness", "severity_colour": "#FFD54F"}}, {"type": "Feature", "geometry": {"type": "Point", "coordinates": [-0.8681, 52.2491]}, "properties": {"confidence_label": "confirmed", "cluster_id": 11, "cells": 1, "max_drive_count": 6, "total_bursts": 6, "severity_score": 28.2, "severity_band": "minor roughness", "severity_colour": "#FFD54F"}}, {"type": "Feature", "geometry": {"type": "Point", "coordinates": [-0.8679, 52.2497]}, "properties": {"confidence_label": "confirmed", "cluster_id": 12, "cells": 1, "max_drive_count": 6, "total_bursts": 6, "severity_score": 25.2, "severity_band": "minor roughness", "severity_colour": "#FFD54F"}}, {"type": "Feature", "geometry": {"type": "Point", "coordinates": [-0.8568333333333333, 52.250566666666664]}, "properties": {"confidence_label": "confirmed", "cluster_id": 13, "cells": 3, "max_drive_count": 10, "total_bursts": 31, "severity_score": 93.8, "severity_band": "severe pothole", "severity_colour": "#E53935"}}, {"type": "Feature", "geometry": {"type": "Point", "coordinates": [-0.8560666666666666, 52.2507]}, "properties": {"confidence_label": "confirmed", "cluster_id": 14, "cells": 3, "max_drive_count": 8, "total_bursts": 21, "severity_score": 64.0, "severity_band": "strong defect", "severity_colour": "#FB8C00"}}, {"type": "Feature", "geometry": {"type": "Point", "coordinates": [-0.8555, 52.2508]}, "properties": {"confidence_label": "confirmed", "cluster_id": 15, "cells": 1, "max_drive_count": 9, "total_bursts": 10, "severity_score": 61.3, "severity_band": "strong defect", "severity_colour": "#FB8C00"}}, {"type": "Feature", "geometry": {"type": "Point", "coordinates": [-0.8548, 52.2509]}, "properties": {"confidence_label": "confirmed", "cluster_id": 16, "cells": 1, "max_drive_count": 6, "total_bursts": 6, "severity_score": 18.7, "severity_band": "minor roughness", "severity_colour": "#FFD54F"}}, {"type": "Feature", "geometry": {"type": "Point", "coordinates": [-0.8544, 52.251]}, "properties": {"confidence_label": "confirmed", "cluster_id": 17, "cells": 1, "max_drive_count": 6, "total_bursts": 6, "severity_score": 40.1, "severity_band": "minor roughness", "severity_colour": "#FFD54F"}}, {"type": "Feature", "geometry": {"type": "Point", "coordinates": [-0.8521, 52.2513]}, "properties": {"confidence_label": "confirmed", "cluster_id": 18, "cells": 1, "max_drive_count": 8, "total_bursts": 9, "severity_score": 43.6, "severity_band": "minor roughness", "severity_colour": "#FFD54F"}}, {"type": "Feature", "geometry": {"type": "Point", "coordinates": [-0.8465, 52.2524]}, "properties": {"confidence_label": "confirmed", "cluster_id": 19, "cells": 1, "max_drive_count": 7, "total_bursts": 7, "severity_score": 46.9, "severity_band": "strong defect", "severity_colour": "#FB8C00"}}, {"type": "Feature", "geometry": {"type": "Point", "coordinates": [-0.8707, 52.2558]}, "properties": {"confidence_label": "confirmed", "cluster_id": 20, "cells": 1, "max_drive_count": 6, "total_bursts": 6, "severity_score": 30.4, "severity_band": "minor roughness", "severity_colour": "#FFD54F"}}, {"type": "Feature", "geometry": {"type": "Point", "coordinates": [-0.8708, 52.2561]}, "properties": {"confidence_label": "confirmed", "cluster_id": 21, "cells": 1, "max_drive_count": 7, "total_bursts": 7, "severity_score": 57.9, "severity_band": "strong defect", "severity_colour": "#FB8C00"}}, {"type": "Feature", "geometry": {"type": "Point", "coordinates": [-0.8488, 52.2608]}, "properties": {"confidence_label": "confirmed", "cluster_id": 22, "cells": 1, "max_drive_count": 6, "total_bursts": 8, "severity_score": 45.7, "severity_band": "strong defect", "severity_colour": "#FB8C00"}}, {"type": "Feature", "geometry": {"type": "Point", "coordinates": [-1.4548, 53.3799]}, "properties": {"confidence_label": "confirmed", "cluster_id": 23, "cells": 1, "max_drive_count": 7, "total_bursts": 7, "severity_score": 27.9, "severity_band": "minor roughness", "severity_colour": "#FFD54F"}}, {"type": "Feature", "geometry": {"type": "Point", "coordinates": [-1.5201, 54.786]}, "properties": {"confidence_label": "confirmed", "cluster_id": 24, "cells": 1, "max_drive_count": 6, "total_bursts": 7, "severity_score": 30.9, "severity_band": "minor roughness", "severity_colour": "#FFD54F"}}, {"type": "Feature", "geometry": {"type": "Point", "coordinates": [-1.5215, 54.7879]}, "properties": {"confidence_label": "confirmed", "cluster_id": 25, "cells": 1, "max_drive_count": 6, "total_bursts": 8, "severity_score": 27.1, "severity_band": "minor roughness", "severity_colour": "#FFD54F"}}]}