{"type": "FeatureCollection", "features": [{"type": "Feature", "geometry": {"type": "Point", "coordinates": [-0.8623, 52.2412]}, "properties": {"drive_count": 8, "burst_count": 9}}, {"type": "Feature", "geometry": {"type": "Point", "coordinates": [-0.8626, 52.2416]}, "properties": {"drive_count": 7, "burst_count": 7}}, {"type": "Feature", "geometry": {"type": "Point", "coordinates": [-0.863, 52.2421]}, "properties": {"drive_count": 7, "burst_count": 7}}, {"type": "Feature", "geometry": {"type": "Point", "coordinates": [-0.8632, 52.2423]}, "properties": {"drive_count": 10, "burst_count": 10}}, {"type": "Feature", "geometry": {"type": "Point", "coordinates": [-0.8633, 52.2424]}, "properties": {"drive_count": 6, "burst_count": 6}}, {"type": "Feature", "geometry": {"type": "Point", "coordinates": [-0.8632, 52.2424]}, "properties": {"drive_count": 7, "burst_count": 7}}, {"type": "Feature", "geometry": {"type": "Point", "coordinates": [-0.8635, 52.2427]}, "properties": {"drive_count": 9, "burst_count": 9}}, {"type": "Feature", "geometry": {"type": "Point", "coordinates": [-0.8636, 52.2428]}, "properties": {"drive_count": 8, "burst_count": 9}}, {"type": "Feature", "geometry": {"type": "Point", "coordinates": [-0.8635, 52.2428]}, "properties": {"drive_count": 8, "burst_count": 8}}, {"type": "Feature", "geometry": {"type": "Point", "coordinates": [-0.8636, 52.2429]}, "properties": {"drive_count": 13, "burst_count": 13}}, {"type": "Feature", "geometry": {"type": "Point", "coordinates": [-0.8637, 52.243]}, "properties": {"drive_count": 7, "burst_count": 7}}, {"type": "Feature", "geometry": {"type": "Point", "coordinates": [-0.8637, 52.2431]}, "properties": {"drive_count": 14, "burst_count": 14}}, {"type": "Feature", "geometry": {"type": "Point", "coordinates": [-0.8638, 52.2432]}, "properties": {"drive_count": 6, "burst_count": 6}}, {"type": "Feature", "geometry": {"type": "Point", "coordinates": [-0.8637, 52.2432]}, "properties": {"drive_count": 6, "burst_count": 6}}, {"type": "Feature", "geometry": {"type": "Point", "coordinates": [-0.8646, 52.2451]}, "properties": {"drive_count": 6, "burst_count": 6}}, {"type": "Feature", "geometry": {"type": "Point", "coordinates": [-0.8647, 52.2454]}, "properties": {"drive_count": 6, "burst_count": 6}}, {"type": "Feature", "geometry": {"type": "Point", "coordinates": [-0.8651, 52.2462]}, "properties": {"drive_count": 6, "burst_count": 6}}, {"type": "Feature", "geometry": {"type": "Point", "coordinates": [-0.8658, 52.2471]}, "properties": {"drive_count": 6, "burst_count": 6}}, {"type": "Feature", "geometry": {"type": "Point", "coordinates": [-0.8681, 52.2491]}, "properties": {"drive_count": 6, "burst_count": 6}}, {"type": "Feature", "geometry": {"type": "Point", "coordinates": [-0.8679, 52.2497]}, "properties": {"drive_count": 6, "burst_count": 6}}, {"type": "Feature", "geometry": {"type": "Point", "coordinates": [-0.8567, 52.2506]}, "properties": {"drive_count": 6, "burst_count": 7}}, {"type": "Feature", "geometry": {"type": "Point", "coordinates": [-0.8561, 52.2507]}, "properties": {"drive_count": 6, "burst_count": 6}}, {"type": "Feature", "geometry": {"type": "Point", "coordinates": [-0.8521, 52.2513]}, "properties": {"drive_count": 6, "burst_count": 6}}, {"type": "Feature", "geometry": {"type": "Point", "coordinates": [-0.8465, 52.2524]}, "properties": {"drive_count": 6, "burst_count": 6}}, {"type": "Feature", "geometry": {"type": "Point", "coordinates": [-0.8707, 52.2558]}, "properties": {"drive_count": 6, "burst_count": 6}}, {"type": "Feature", "geometry": {"type": "Point", "coordinates": [-0.8708, 52.2561]}, "properties": {"drive_count": 7, "burst_count": 7}}, {"type": "Feature", "geometry": {"type": "Point", "coordinates": [-1.4548, 53.3799]}, "properties": {"drive_count": 7, "burst_count": 7}}]}